,address,city,state,zip,country,lat,lng,Is_Walmart,Is_Walgreens,Is_Target,Is_CVS,Is_Rite,Is_SuperStopnShop
0,1752B Route 9,Clifton Park,NY,12065,US,42.871739,-73.774136,1,1,1,1,1,0
3,411 Furrows Rd,Holbrook,NY,11741,US,40.806919,-73.07295,0,0,0,1,0,1
17,260 Halstead Ave,Harrison,NY,10528,US,40.968672,-73.71364200000001,0,0,0,0,0,0
60,330 W. Route 59,Nanuet,NY,10954,US,41.101692,-74.02578100000001,0,0,0,0,0,1
78,1213 Liberty Ave,Brooklyn,NY,11208,US,40.679139,-73.864704,0,0,0,0,0,0
82,1066 Madison Av,Albany,NY,12210,US,42.665352,-73.790543,0,0,0,0,0,0
90,674 Broadway,Newburgh,NY,12550,US,41.502371999999994,-74.039397,1,1,1,0,1,1
93,314 S 2nd St,Fulton,NY,13069,US,43.317575,-76.41234399999999,1,0,0,0,1,0
102,4395 Union Rd,Cheektowaga,NY,14225,US,42.932902,-78.754065,1,0,1,0,1,0
107,3155 Delaware Ave,Kenmore,NY,14217,US,42.970351,-78.870541,0,1,0,0,1,0
112,207 S Broadway,Saratoga Springs,NY,12866,US,43.074622,-73.78755100000001,1,1,1,1,1,0
115,120 E Sunrise Hwy,Valley Stream,NY,11581,US,40.658311,-73.695194,1,0,1,0,0,0
116,21911 Hillside Ave,Queens Village,NY,11427,US,40.729890000000005,-73.74523,0,0,0,1,0,0
117,14625 Northern Blvd,Flushing,NY,11354,US,40.765370000000004,-73.81981,0,0,0,0,1,0
118,2073 Jericho Tpke,Commack,NY,11725,US,40.844806,-73.276264,1,1,1,1,1,0
119,1063 Northern Blvd,Roslyn,NY,11576,US,40.79891,-73.66323,0,0,0,0,0,0
122,1040 Central Ave,Albany,NY,12205,US,42.685553999999996,-73.796909,1,1,1,1,1,0
123,3000 Vestal Pky E,Vestal,NY,13850,US,42.0948,-76.00445,1,0,1,1,1,0
125,1200 State St,Schenectady,NY,12304,US,42.799064,-73.9256,0,0,1,1,1,0
126,301 Madison Ave,Elmira,NY,14901,US,42.092446,-76.800161,0,1,0,0,1,0
127,277 Ridge Rd E,Rochester,NY,14621,US,43.194472,-77.61085600000001,1,1,0,1,1,0
129,1311 Boston Post Rd,Larchmont,NY,10538,US,40.936103,-73.746717,0,0,0,1,0,0
138,1888 New York Ave,Huntington Station,NY,11746,US,40.837579999999996,-73.41194,0,1,0,1,1,0
172,667 New Loudon Rd,Latham,NY,12110,US,42.736224,-73.761719,1,1,1,1,1,0
178,1232 Western Ave,Albany,NY,12203,US,42.677847,-73.829086,0,0,0,1,1,0
193,2425 Hylan Blvd,Staten Island,NY,10306,US,40.571971000000005,-74.108255,0,0,0,1,1,1
209,2885 Long Beach Rd,Oceanside,NY,11572,US,40.64078,-73.6396,0,1,0,1,1,0
214,247 Greenwich St,Hempstead,NY,11550,US,40.70035,-73.61583,0,1,0,1,0,1
215,330 Boston Post Rd,Port Chester,NY,10573,US,40.994896999999995,-73.673939,0,1,0,1,0,0
236,580 Route 303,Blauvelt,NY,10913,US,41.062981,-73.949359,0,0,0,0,0,0
243,2102 Main St,Cortlandt Manor,NY,10567,US,41.305075,-73.879242,0,0,0,0,1,0
255,217 S Salina St,Syracuse,NY,13202,US,43.048835,-76.151999,0,0,0,0,1,0
259,1583 Route 22,Brewster,NY,10509,US,41.426012,-73.578179,0,0,0,0,1,0
269,1309 Fulton St,Brooklyn,NY,11216,US,40.680482,-73.948915,0,0,0,0,1,0
280,136 W Main St,Batavia,NY,14020,US,42.999953000000005,-78.19104399999999,1,0,1,1,1,0
316,764 Main St,Poughkeepsie,NY,12603,US,41.696228000000005,-73.90345,0,1,0,1,1,1
340,1582 Route 9,Wappingers Falls,NY,12590,US,41.597947,-73.910697,0,1,0,0,1,1
341,713 Upper Glen St,Queensbury,NY,12804,US,43.327306,-73.667997,1,0,1,1,1,0
344,314 Larkfield Rd,East Northport,NY,11731,US,40.87175,-73.32327,0,1,0,1,1,0
350,369 E Main St,Patchogue,NY,11772,US,40.76678,-73.00158,0,1,0,1,1,0
374,1250 Arsenal St,Watertown,NY,13601,US,43.976354,-75.944855,1,1,1,0,1,0
383,807 State Rt 82,Hopewell Junction,NY,12533,US,41.5787,-73.812336,0,0,0,1,1,0
384,311 Cornelia St,Plattsburgh,NY,12901,US,44.697269,-73.47685,1,1,1,0,1,0
416,1694 Islip Ave,Brentwood,NY,11717,US,40.78674,-73.22079000000001,0,0,0,0,1,0
418,229 Mamaroneck Ave,Mamaroneck,NY,10543,US,40.950392,-73.733693,0,0,0,1,0,0
427,1955a Victory Blvd,Staten Island,NY,10314,US,40.612640999999996,-74.129266,0,1,0,1,1,0
433,127 E Montauk Hwy,Hampton Bays,NY,11946,US,40.876490000000004,-72.52962,0,0,0,0,1,0
446,809B Route 50,Burnt Hills,NY,12019,US,42.909602,-73.899395,0,0,0,0,1,0
455,6601 Niagara Falls Blvd,Niagara Falls,NY,14304,US,43.088833,-78.98781899999999,1,0,1,0,1,0
458,1906 Deer Park Ave,Deer Park,NY,11729,US,40.76182,-73.32972,0,1,0,1,0,1
481,73 North Plank Rd,Newburgh,NY,12550,US,41.526664000000004,-74.033963,1,1,1,0,1,1
495,1051 Old Country Rd,Riverhead,NY,11901,US,40.932378,-72.673664,1,1,1,1,0,0
496,350 Middle Country Rd,Coram,NY,11727,US,40.870509999999996,-72.99710999999999,0,0,0,0,0,1
497,1275 Veterans Memorial Hwy,Hauppauge,NY,11788,US,40.815478000000006,-73.192686,0,0,0,0,1,0
500,3 Healy Blvd,Hudson,NY,12534,US,42.254502,-73.767351,1,1,0,1,1,0
502,500 Medford Ave,Patchogue,NY,11772,US,40.785903000000005,-73.00945,0,1,0,1,1,0
505,5 Brewster St,Glen Cove,NY,11542,US,40.86589,-73.6325,0,1,0,1,1,0
518,266 Saratoga Rd,Scotia,NY,12302,US,42.871003,-73.931411,1,0,0,1,0,0
530,1680 Grand Ave,Baldwin,NY,11510,US,40.669000000000004,-73.609492,0,1,0,1,0,0
532,235 W. Main St,Smithtown,NY,11787,US,40.857042,-73.204289,0,1,0,1,1,0
533,336 W Jericho Tpke,Huntington,NY,11743,US,40.82853,-73.42474,0,0,0,1,1,0
534,475 Hempstead Tpke,West Hempstead,NY,11552,US,40.70533,-73.65679,0,0,0,1,1,0
538,40 S. Route 9W,West Haverstraw,NY,10993,US,41.206321,-73.984038,0,0,0,0,0,0
539,1399 Hicksville Rd,Massapequa,NY,11758,US,40.692370000000004,-73.47886,1,1,0,1,0,0
540,330 E Montauk Hwy,Lindenhurst,NY,11757,US,40.683695,-73.353637,0,0,0,1,1,0
542,8301 Flatlands Ave,Brooklyn,NY,11236,US,40.63731,-73.9111,0,1,0,1,1,0
544,5017 Nesconset Hwy,Port Jefferson Station,NY,11776,US,40.923041999999995,-73.049081,0,0,0,1,1,0
546,2800 Merrick Rd,Bellmore,NY,11710,US,40.66421,-73.52211,0,1,0,1,1,1
551,1068 Old Country Rd,Plainview,NY,11803,US,40.77647,-73.47079000000001,0,0,0,1,1,0
560,529 E. Main St,Bay Shore,NY,11706,US,40.728008,-73.229853,0,0,1,1,1,0
561,176 N Bedford Rd,Mount Kisco,NY,10549,US,41.214366999999996,-73.720277,0,0,1,1,1,0
570,250 Main St,New Paltz,NY,12561,US,41.74264,-74.070237,0,0,0,0,1,0
573,280 E Sunrise Hwy,Lindenhurst,NY,11757,US,40.707648,-73.37123199999999,0,0,0,1,1,0
579,Route 42 N,Monticello,NY,12701,US,41.671007,-74.672062,1,0,0,0,1,0
581,336 N Broadway,Jericho,NY,11753,US,40.781271999999994,-73.533069,0,0,0,1,0,0
583,21920 Northern Blvd,Bayside,NY,11361,US,40.760979999999996,-73.76236,0,0,0,1,1,0
584,2580 South Rd,Poughkeepsie,NY,12601,US,41.665078,-73.929622,0,1,1,1,1,1
592,545 William Floyd Pkwy,Shirley,NY,11967,US,40.79994,-72.86588,0,0,0,1,1,0
594,575 Fulton St,Farmingdale,NY,11735,US,40.72866,-73.44797,1,1,1,1,0,0
595,116 Broadhollow Rd,Melville,NY,11747,US,40.789159999999995,-73.4157,0,0,0,0,0,0
612,25420 Hillside Ave,Floral Park,NY,11004,US,40.73614,-73.71261,0,0,0,1,1,0
617,16822 Union Tpke,Flushing,NY,11366,US,40.723040000000005,-73.79951,0,0,0,0,1,0
629,202-09 Hillside Ave,Hollis,NY,11423,US,40.72019,-73.76209,0,0,0,0,0,0
630,299 Burnside Ave,Lawrence,NY,11559,US,40.62395,-73.73522,0,0,0,0,0,0
632,1701 Black River Blvd N,Rome,NY,13440,US,43.23048,-75.439599,1,1,0,0,1,0
639,2062 Lakeville Rd,New Hyde Park,NY,11040,US,40.752228,-73.700869,0,1,0,1,1,0
647,13210 14th Ave,College Point,NY,11356,US,40.785937,-73.836214,0,1,1,1,1,0
648,990 E Main St,Cobleskill,NY,12043,US,42.679581,-74.464597,1,0,0,0,1,0
674,50 Mamaroneck Ave,White Plains,NY,10601,US,41.031194,-73.766308,1,0,1,1,0,1
680,21 Wall St,Huntington,NY,11743,US,40.871856,-73.427628,0,0,0,1,1,0
687,7520 37th Ave,Jackson Heights,NY,11372,US,40.74895,-73.89026,0,1,0,1,1,0
712,433 Chestnut St,Oneonta,NY,13820,US,42.455389000000004,-75.096305,1,1,0,0,1,0
715,3336 W Genesee St,Syracuse,NY,13219,US,43.048783,-76.228886,0,0,1,0,1,0
717,59 Orange Tpke,Sloatsburg,NY,10974,US,41.155608,-74.193372,0,0,0,0,0,0
725,4886 Sunrise Hwy,Massapequa Park,NY,11762,US,40.6772,-73.454786,0,0,0,0,1,0
728,4202 Northern Blvd,Long Island City,NY,11101,US,40.75249,-73.92109,0,0,0,0,0,0
733,125 Conhocton St,Corning,NY,14830,US,42.140221000000004,-77.040543,0,1,0,0,1,0
742,818 N Main St,North Syracuse,NY,13212,US,43.145494,-76.126447,0,0,0,0,1,0
750,16302 Cross Bay Blvd,Howard Beach,NY,11414,US,40.65215,-73.83851999999999,0,0,0,1,1,0
761,321 W 125th St,New York,NY,10027,US,40.811,-73.952267,0,0,0,1,1,0
762,1731 Merrick Rd,Merrick,NY,11566,US,40.653828000000004,-73.557633,0,0,0,1,0,0
763,91 E Main St,Elmsford,NY,10523,US,41.052702000000004,-73.814666,0,0,0,1,0,0
770,655 Rossville Ave,Staten Island,NY,10309,US,40.542811,-74.20649399999999,0,0,1,1,0,0
772,5602 Metropolitan Ave,Ridgewood,NY,11385,US,40.71267,-73.90677,0,0,0,1,1,0
841,2 E Genesee St,Auburn,NY,13021,US,42.932984000000005,-76.563505,1,1,0,0,1,0
842,2080 HEMPSTEAD TPKE,EAST MEADOW,NY,11554,US,40.72457,-73.55991999999999,1,1,0,1,1,0
843,374 Downing Dr,Yorktown Heights,NY,10598,US,41.273558,-73.78281899999999,0,0,0,1,0,0
844,7645 Oswego Rd,Liverpool,NY,13090,US,43.139964,-76.2275,1,0,1,0,1,0
845,135 Park St,Owego,NY,13827,US,42.103144,-76.26316,0,0,0,1,1,0
883,126 Jericho Turnpike,Mineola,NY,11501,US,40.74966,-73.64026,0,1,0,1,1,0
889,149 Grant Ave,Auburn,NY,13021,US,42.944125,-76.551475,1,1,0,0,1,0
890,15367 Horace Harding Expy,Flushing,NY,11367,US,40.73944,-73.81562,0,1,0,0,1,0
902,2458 Jericho Tpke,Garden City Park,NY,11040,US,40.74342,-73.65722,0,1,0,1,1,0
906,2060 Western Ave,Guilderland,NY,12084,US,42.698001,-73.890039,0,1,0,0,0,0
909,23819 Linden Blvd,Elmont,NY,11003,US,40.690532,-73.724176,0,1,0,1,1,0
910,373 Kings Hwy,Brooklyn,NY,11223,US,40.60491,-73.97652,0,1,0,0,1,0
916,976 Hempstead Tpke,Uniondale,NY,11553,US,40.715835,-73.59860400000001,1,0,0,0,0,0
927,11010 Flatlands Ave,Brooklyn,NY,11207,US,40.650864,-73.89005999999999,0,0,0,0,1,0
938,219 Hempstead Tpke,Elmont,NY,11003,US,40.70825,-73.71921999999999,0,1,0,1,1,0
943,2172 Westchester Ave,Bronx,NY,10462,US,40.834106,-73.851558,0,1,0,1,1,0
947,1922 Flatbush Ave # L,Brooklyn,NY,11210,US,40.622668,-73.937353,0,0,1,0,1,0
951,13 Graham Ave,Brooklyn,NY,11206,US,40.70155,-73.94244,0,1,0,0,0,0
957,439 Madison Avenue,Albany,NY,12210,US,42.652649,-73.76779499999999,0,0,0,0,0,0
959,9243 4th Ave,Brooklyn,NY,11209,US,40.61721,-74.03022,0,1,0,0,1,0
960,2630 86th St,Brooklyn,NY,11223,US,40.59601,-73.98448,0,1,0,0,1,0
964,35-37 E Sunrise Hwy,Freeport,NY,11520,US,40.65676,-73.58074,0,1,0,1,0,0
971,1422 Kings Hwy,Brooklyn,NY,11229,US,40.60864,-73.95843,0,1,0,1,1,0
973,6103 Flushing Ave,Flushing,NY,11378,US,40.721470000000004,-73.90383,0,0,0,1,0,0
974,3526 State St,Schenectady,NY,12304,US,42.769422999999996,-73.893211,0,0,1,1,1,0
976,1400 E Main St,Endicott,NY,13760,US,42.09926,-76.04635400000001,0,0,0,1,1,0
991,9405 Rockaway Blvd,Jamaica,NY,11417,US,40.68104,-73.84506,0,0,0,1,1,0
992,6365 Woodhaven Blvd,Rego Park,NY,11374,US,40.722970000000004,-73.8675,0,0,0,1,1,0
994,711 Brighton Beach Ave,Brooklyn,NY,11235,US,40.57806,-73.960195,0,1,0,1,1,1
1001,137 12th St,Brooklyn,NY,11215,US,40.6718,-73.99698000000001,0,0,0,1,1,0
1006,232 Delaware Ave,Delmar,NY,12054,US,42.627140999999995,-73.81875500000001,0,0,0,1,0,0
1020,4090 Boston Rd,Bronx,NY,10475,US,40.885705,-73.828293,0,0,0,0,1,0
1045,355 Sunrise Hwy,Lynbrook,NY,11563,US,40.655024,-73.66987900000001,0,0,0,0,1,0
1051,601 New Scotland Ave,Albany,NY,12208,US,42.657146000000004,-73.802948,0,1,0,1,1,0
1053,24809 Northern Blvd,Little Neck,NY,11362,US,40.76733,-73.73915600000001,0,0,0,1,0,0
1054,1002 Route 94,Vails Gate,NY,12584,US,41.454409999999996,-74.057783,0,0,0,0,0,0
1055,59 Vandenberg Ave,Troy,NY,12180,US,42.699908,-73.689431,1,1,0,1,1,0
1064,17 Mohawk Ave,Scotia,NY,12302,US,42.824081,-73.959808,1,0,0,1,0,0
1074,7016 Northern Blvd,Flushing,NY,11372,US,40.75425,-73.89585,0,1,0,1,1,0
1076,112 S Broadway,Red Hook,NY,12571,US,41.986556,-73.88162700000001,0,0,0,1,0,0
1077,1 Front St,Hempstead,NY,11550,US,40.70466,-73.63716,0,1,0,1,0,1
1089,1351 Forest Ave,Staten Island,NY,10302,US,40.626006,-74.134489,0,1,0,1,0,0
1090,6378 Thompson Rd,Syracuse,NY,13206,US,43.079404,-76.088685,0,1,0,0,1,0
1102,1900 Curry Rd,Schenectady,NY,12306,US,42.780190999999995,-73.957185,0,0,0,1,1,0
1118,1261 Sunrise Hwy,Bay Shore,NY,11706,US,40.73305,-73.26384,0,0,1,1,1,0
1134,10202 Atlantic Ave,Ozone Park,NY,11416,US,40.689555,-73.842465,0,0,0,1,1,0
1158,92 Saratoga St,Cohoes,NY,12047,US,42.773856,-73.69812900000001,0,0,0,1,1,0
1171,800 Second Avenue,New York,NY,10017,US,40.750437,-73.971713,0,0,0,1,1,0
1173,3665 Dewey Avenue,Greece,NY,14616,US,43.236785,-77.647287,0,0,0,1,1,0
1182,361 Route 59,West Nyack,NY,10994,US,41.094279,-73.954041,0,0,1,0,1,0
1186,595 Franklin Ave,Franklin Square,NY,11010,US,40.69208,-73.68404,0,1,0,1,1,0
1201,1500 Mount Hope Ave,Rochester,NY,14620,US,43.120943,-77.619005,0,1,0,1,0,0
1202,300 Monroe Ave,Rochester,NY,14607,US,43.149102,-77.597996,0,0,0,1,1,0
1205,4102 College Point Blvd,Flushing,NY,11355,US,40.75612,-73.83381999999999,0,1,0,0,0,0
1210,1315 Upper Front St,Binghamton,NY,13901,US,42.161394,-75.893918,0,0,0,1,1,0
1211,95 Saratoga Ave,South Glens Falls,NY,12803,US,43.291444,-73.63665400000001,0,0,0,0,1,0
1212,148 Dolson Ave,Middletown,NY,10940,US,41.429544,-74.425433,1,0,0,1,1,0
1232,3114 Ditmars Blvd,Astoria,NY,11105,US,40.77029,-73.90382,0,0,0,1,1,0
1252,1575 Flatbush Ave,Brooklyn,NY,11210,US,40.63242,-73.9472,0,0,1,0,1,0
1256,3401 Broadway,Long Island City,NY,11106,US,40.76089,-73.92271,0,1,0,0,1,0
1257,8777 Parsons Blvd,Jamaica,NY,11432,US,40.70728,-73.80249,0,1,0,1,1,0
1263,203 Broadhollow Rd,Farmingdale,NY,11735,US,40.7143,-73.42738,1,1,1,1,0,0
1277,1980 86th St,Brooklyn,NY,11214,US,40.604669,-73.998747,0,0,0,1,1,0
1279,132 Tuckahoe Rd,Yonkers,NY,10710,US,40.954705,-73.865443,0,0,0,1,1,0
1283,250 Broadway,New York,NY,10007,US,40.712973999999996,-74.00710500000001,0,0,0,0,0,0
1284,321 Broadway,New York,NY,10007,US,40.715990999999995,-74.00498499999999,0,0,0,0,0,0
1295,290 E Main St,Port Jervis,NY,12771,US,41.35842,-74.68377199999999,0,0,0,0,1,0
1298,105 State Route 104,Oswego,NY,13126,US,43.460728,-76.490383,1,0,0,0,1,0
1307,3015 Stratton St,Flushing,NY,11354,US,40.76968,-73.83458,0,0,0,0,1,0
1311,3080 Boston Rd,Bronx,NY,10469,US,40.87064,-73.856036,0,1,0,0,1,0
1342,6908 Grand Ave,Flushing,NY,11378,US,40.7261,-73.89496,0,0,0,1,0,0
1347,1410 Avenue J,Brooklyn,NY,11230,US,40.625075,-73.96197,0,1,0,0,1,0
1362,65 Freemans Bridge Rd,Glenville,NY,12302,US,42.837158,-73.93495899999999,1,0,0,1,0,0
1364,5615 Myrtle Ave,Flushing,NY,11385,US,40.70043,-73.90563,0,0,0,1,1,0
1375,35 N Station Plz,Great Neck,NY,11021,US,40.78776,-73.72636999999999,0,0,0,1,1,0
1386,56 Court St,Brooklyn,NY,11201,US,40.692152,-73.991323,0,0,0,1,1,0
1396,39 N Pearl St,Albany,NY,12207,US,42.650940999999996,-73.751692,0,0,0,0,1,0
1410,8413 Jamaica Ave,Woodhaven,NY,11421,US,40.692473,-73.860428,0,0,0,0,1,0
1421,16904 Hillside Ave,Jamaica,NY,11432,US,40.710679999999996,-73.79261,0,1,0,1,1,0
1423,2092 Rockaway Pky,Brooklyn,NY,11236,US,40.631819,-73.888364,0,1,0,1,1,0
1427,Grand Union Plaza/Rts 17m &207,Goshen,NY,10924,US,41.397246,-74.333489,0,0,0,1,0,0
1429,8155 Lefferts Blvd,Kew Gardens,NY,11415,US,40.707965,-73.83082900000001,0,0,0,1,0,0
1430,1621 Union St,Schenectady,NY,12309,US,42.804860999999995,-73.904448,0,0,0,1,0,0
1473,536 Avenue Of The Americas,New York,NY,10011,US,40.737527,-73.99650799999999,0,0,0,1,1,0
1478,100 N Middletown Rd,Pearl River,NY,10965,US,41.063808,-74.012505,0,0,0,1,1,0
1494,295 Wall St,Kingston,NY,12401,US,41.933519,-74.01971999999999,1,1,1,1,1,0
1497,13801 Queens Blvd,Jamaica,NY,11435,US,40.708909000000006,-73.818426,0,0,0,0,1,0
1498,51 E Park Ave,Long Beach,NY,11561,US,40.589348,-73.663288,0,1,0,1,1,0
1503,160 Adams Ave,Hauppauge,NY,11788,US,40.811254,-73.256765,0,0,0,0,1,0
1504,2 1/2 N Main St,Ellenville,NY,12428,US,41.724857,-74.389155,0,0,0,0,1,0
1509,55 Main St,Port Washington,NY,11050,US,40.83076,-73.68732,0,0,0,0,1,1
1510,122 Main St,Port Jefferson,NY,11777,US,40.945883,-73.068617,0,0,0,1,0,0
1520,2576 State Route 5 S,Little Falls,NY,13365,US,43.015964000000004,-74.804114,0,0,0,1,0,0
1521,1399 Nine Foot Rd,Phelps,NY,14532,US,42.959191,-76.91765500000001,0,0,0,0,0,0
1522,NYS Thruway Mile 33 N,Sloatsburg,NY,10974,US,41.162212,-74.154197,0,0,0,0,0,0
1525,1 Glen Cove Rd,Greenvale,NY,11548,US,40.80738,-73.62682,0,0,0,0,0,0
1527,159 Pine Hollow Rd,Oyster Bay,NY,11771,US,40.8601,-73.53501999999999,0,0,0,1,1,0
1541,1766 Merrick Ave N,Merrick,NY,11566,US,40.675154,-73.55707199999999,0,0,0,1,0,0
1557,3267 Sunrise Hwy,Wantagh,NY,11793,US,40.67232,-73.50881,0,0,0,1,1,0
1562,21816 Jamaica Ave,Queens Village,NY,11428,US,40.717862,-73.736705,0,0,0,0,0,0
1563,169A Commack Rd,Commack,NY,11725,US,40.83872,-73.2947,1,1,1,1,1,0
1577,13118 Merrick Blvd,Jamaica,NY,11434,US,40.679293,-73.761142,0,1,0,1,1,0
1578,1935 State Rte. 52,Liberty,NY,12754,US,41.783783,-74.71943,0,0,0,0,1,0
1581,213 W Bridge St,Catskill,NY,12414,US,42.214914,-73.87801800000001,1,1,0,0,1,0
1590,2007 Doubleday Ave,Ballston Spa,NY,12020,US,43.011148,-73.849536,0,0,0,1,0,0
1597,646 North Ave,New Rochelle,NY,10801,US,40.923695,-73.788004,0,1,0,1,1,1
1598,245 Highland Pl,Brooklyn,NY,11208,US,40.67942,-73.88035,0,0,0,0,0,0
1602,Rt 17M,Monroe,NY,10950,US,41.333518,-74.19289300000001,1,0,1,1,1,1
1606,266 First Ave,New York,NY,10009,US,40.732186,-73.98156999999999,0,1,0,0,1,0
1609,374 Main St,Oneonta,NY,13820,US,42.457502000000005,-75.05601800000001,1,1,0,0,1,0
1619,302 5th Ave,New York,NY,10001,US,40.746633,-73.985962,0,0,0,1,1,0
1639,892 Manhattan Ave,Brooklyn,NY,11222,US,40.730059999999995,-73.95411,0,0,0,0,1,0
1644,6620 Avenue U,Brooklyn,NY,11234,US,40.617236,-73.909718,0,1,0,1,1,0
1648,90 Railroad Ave,Ronkonkoma,NY,11779,US,40.808505,-73.106309,0,0,0,1,1,1
1655,552 3rd Ave,Brooklyn,NY,11215,US,40.6684,-73.99382,0,0,0,1,1,0
1668,3031 Coney Island Ave,Brooklyn,NY,11235,US,40.58247,-73.95978000000001,0,1,0,1,1,1
1679,5 Goldens Bridge Shopping Ctr,Goldens Bridge,NY,10526,US,41.293658,-73.675776,0,0,0,0,0,0
1687,755 N. Broadway,White Plains,NY,10603,US,41.058171,-73.766195,0,0,0,1,0,1
1710,388 Fishkill Ave,Beacon,NY,12508,US,41.510076,-73.95286800000001,0,0,0,0,1,0
1711,1423 150th St,Whitestone,NY,11357,US,40.788241,-73.813487,0,1,0,1,1,0
1712,1416 St Nicholas Ave,New York,NY,10033,US,40.849052,-73.933673,0,0,0,0,1,0
1719,2502 31st St,Astoria,NY,11102,US,40.77045,-73.91806,0,0,0,0,1,0
1729,242 E Union St,Newark,NY,14513,US,43.047087,-77.08968,1,1,0,0,1,0
1730,560 Smithtown Byp,Smithtown,NY,11787,US,40.832057,-73.195536,0,1,0,1,1,0
1735,2381 US Route 9W,Ravena,NY,12143,US,42.473490000000005,-73.818901,0,0,0,1,1,0
1741,13541 Roosevelt Ave,Flushing,NY,11354,US,40.759541,-73.830628,0,0,0,0,1,0
1746,106 Park Pl,Schoharie,NY,12157,US,42.703464000000004,-74.310986,0,0,0,0,0,0
1758,255 Meadow Dr,North Tonawanda,NY,14120,US,43.052199,-78.877088,0,1,0,1,1,0
1763,4541 Sunrise Hwy,Bohemia,NY,11716,US,40.75428,-73.11785,0,0,0,1,0,0
1769,2730 Frederick Douglass Blvd,New York,NY,10039,US,40.822875,-73.941476,0,0,0,0,0,0
1777,158 N. Main St,Florida,NY,10921,US,41.337590999999996,-74.359153,0,0,0,0,0,0
1785,3853 Main St,Stone Ridge,NY,12484,US,41.844074,-74.14771,0,0,0,0,1,0
1786,4025B Hempstead Tpke,Bethpage,NY,11714,US,40.725561,-73.487149,0,1,0,1,1,0
1787,355 Broadway,Amityville,NY,11701,US,40.68365,-73.41731,0,1,0,1,0,1
1789,13 W. Main St,East Islip,NY,11730,US,40.731491999999996,-73.191786,0,0,0,1,1,1
1790,276 Hillside Ave,Williston Park,NY,11596,US,40.754740000000005,-73.65019000000001,0,0,0,1,1,0
1808,347 Glen Cove Ave,Sea Cliff,NY,11579,US,40.841021999999995,-73.634912,0,0,0,0,0,0
1812,16 S Central Ave,Mechanicville,NY,12118,US,42.902618,-73.68874,0,0,0,1,1,0
1813,1285 Broadway,Brooklyn,NY,11221,US,40.690909999999995,-73.92432099999999,0,1,0,0,0,0
1816,3956 61st St,Woodside,NY,11377,US,40.745781,-73.903456,0,0,0,1,1,0
1818,1051 Willis Ave,Albertson,NY,11507,US,40.77221,-73.64923,0,0,0,0,1,0
1819,3547 Francis Lewis Blvd,Flushing,NY,11358,US,40.76351,-73.78631,0,0,0,1,1,0
1823,763 E. Gun Hill Rd,Bronx,NY,10467,US,40.876665,-73.863203,0,1,0,1,1,0
1834,2248 Central Park Ave,Yonkers,NY,10710,US,40.974669,-73.83295,0,0,0,1,1,0
1838,1 Southfield Ave,Dobbs Ferry,NY,10522,US,41.012405,-73.850787,0,0,0,0,0,0
1839,165 7th St,Garden City,NY,11530,US,40.72515,-73.63507,0,1,0,1,0,0
1840,4785 Boston Post Rd,Pelham Manor,NY,10803,US,40.896992,-73.804154,0,0,0,1,0,0
1848,Main St - Rte 44,Pleasant Valley,NY,12569,US,41.74437,-73.824386,0,0,0,1,0,0
1860,310 Main St,Highland Falls,NY,10928,US,41.370575,-73.965135,0,0,0,0,1,0
1865,9925 Horace Harding Expy,Flushing,NY,11368,US,40.73649,-73.857598,0,1,0,0,1,0
1870,575 Broadway,Kingston,NY,12401,US,41.928833000000004,-74.003155,1,1,1,1,1,0
1875,1311 Middle Country Rd,Centereach,NY,11720,US,40.86225,-73.05956,1,1,1,1,0,1
1891,1029 Clintonville St,Whitestone,NY,11357,US,40.7922,-73.812492,0,1,0,1,1,0
1894,448 Broadway,Rensselaer,NY,12144,US,42.64193,-73.743872,1,0,1,0,1,0
1895,728 W 181st St,New York,NY,10033,US,40.850509,-73.937259,0,0,0,0,1,0
1901,610 Utica Ave,Brooklyn,NY,11203,US,40.6585,-73.93146,0,1,0,0,1,0
1902,2702 E. Tremont Ave,Bronx,NY,10461,US,40.842525,-73.845789,0,1,0,1,1,0
1903,Upper Broadway,Fort Edward,NY,12828,US,43.285191999999995,-73.58626600000001,0,0,0,0,0,0
1907,96 E Main St,New Rochelle,NY,10801,US,40.918116,-73.767679,0,1,0,1,1,1
1908,4760 Salina St,Pulaski,NY,13142,US,43.561921000000005,-76.126284,0,0,0,0,1,0
1909,Route 29,Greenwich,NY,12834,US,43.103339,-73.517126,0,0,0,1,0,0
1922,3102 36th Ave,Long Island City,NY,11106,US,40.756444,-73.92959,0,1,0,0,1,0
1927,570 Mamaroneck Ave,White Plains,NY,10605,US,41.020726,-73.757692,0,0,0,1,0,0
1931,1 Galleria Dr,Middletown,NY,10941,US,41.45298,-74.36820999999999,0,0,1,0,1,0
1932,42 Lake St,White Plains,NY,10603,US,41.037501,-73.760111,0,0,0,1,0,1
1936,9712 Metropolitan Ave,Forest Hills,NY,11375,US,40.7111,-73.85535,0,1,0,1,1,0
1937,412 3rd Ave,New York,NY,10016,US,40.742521999999994,-73.980665,0,1,0,1,1,0
1943,124 Route 32,Central Valley,NY,10917,US,41.322105,-74.123924,0,0,0,0,0,0
1944,15 S. Route 303,Congers,NY,10920,US,41.146287,-73.933909,0,0,0,0,0,0
1958,3399 Crompond Rd,Yorktown Heights,NY,10598,US,41.291084999999995,-73.83214699999999,0,0,0,1,0,0
1967,7513 Metropolitan Ave,Middle Village,NY,11379,US,40.713085,-73.876994,0,1,0,1,0,0
1975,61 N. Village Ave,Rockville Centre,NY,11570,US,40.65872,-73.64786,0,0,0,1,1,0
1994,6755 5th Ave,Brooklyn,NY,11220,US,40.63423,-74.02051999999999,0,0,0,0,1,0
1995,628 Horseblock Rd,Farmingville,NY,11738,US,40.833040000000004,-73.03878,0,0,0,1,1,1
2002,8513 18th Ave,Brooklyn,NY,11214,US,40.607475,-74.002117,0,0,0,1,1,0
2005,1495 State Route 52,Hopewell Junction,NY,12533,US,41.542949,-73.866488,0,0,0,1,1,0
2013,205 Wheeler Rd,Hauppauge,NY,11788,US,40.80336,-73.21282,0,0,0,0,1,0
2016,8347 Parsons Blvd,Jamaica,NY,11432,US,40.71435,-73.80709,0,1,0,1,1,0
2017,759 Suffolk Ave,Brentwood,NY,11717,US,40.781247,-73.247423,0,0,0,0,1,0
2018,1443 Myrtle Ave,Brooklyn,NY,11237,US,40.698923,-73.91807,0,0,0,0,1,0
2037,4513 Queens Blvd,Sunnyside,NY,11104,US,40.743478,-73.918933,0,0,0,1,1,0
2038,3326 21st St,Long Island City,NY,11106,US,40.76441,-73.933054,0,1,0,0,1,0
2042,710 Mclean Ave,Yonkers,NY,10704,US,40.908714,-73.874928,0,1,0,1,0,1
2043,1374 Metropolitan Ave,Bronx,NY,10462,US,40.835171,-73.860888,0,1,0,1,1,0
2047,295 Midland Ave,Port Chester,NY,10573,US,40.991703,-73.669263,0,1,0,1,0,0
2052,505A Bedford Rd,Pleasantville,NY,10570,US,41.132394,-73.79458100000001,0,0,0,0,0,0
2053,329 Merrick Ave,East Meadow,NY,11554,US,40.714584,-73.57300699999999,1,1,0,1,1,0
2054,6040 Myrtle Ave,Ridgewood,NY,11385,US,40.70053,-73.89678,0,0,0,1,1,0
2062,19 Bay Shore Rd,Bay Shore,NY,11706,US,40.73899,-73.2931,0,0,1,1,1,0
2063,3043 Steinway St,Long Island City,NY,11103,US,40.76265,-73.91581,0,0,0,0,1,0
2067,12074 Queens Blvd,Kew Gardens,NY,11415,US,40.712979,-73.82844300000001,0,0,0,1,0,0
2072,209 N Comrie Ave,Johnstown,NY,12095,US,43.015167,-74.361559,0,0,0,0,1,0
2074,6030 Duanesburg Rd,Duanesburg,NY,12056,US,42.764551000000004,-74.118911,0,0,0,0,0,0
2078,86 S. Greeley Ave,Chappaqua,NY,10514,US,41.157752,-73.773333,0,0,0,0,1,0
2079,6309 18th Ave,Brooklyn,NY,11204,US,40.619948,-73.9892,0,1,0,1,1,0
2082,370 Plandome Rd,Manhasset,NY,11030,US,40.797740000000005,-73.6999,0,0,0,0,1,0
2083,1691 E 16th St,Brooklyn,NY,11229,US,40.60838,-73.95728000000001,0,1,0,1,1,0
2088,3800 Brewerton Rd,North Syracuse,NY,13212,US,43.118481,-76.143106,0,0,0,0,1,0
2091,1752 Crosby Ave,Bronx,NY,10461,US,40.846385,-73.831637,0,1,0,1,1,0
2099,34 E Genesee St,Baldwinsville,NY,13027,US,43.158906,-76.328389,0,1,0,0,1,0
2100,131 P & C Pkwy,Syracuse,NY,13208,US,43.076679999999996,-76.169326,0,0,0,0,1,0
2103,650 Fort Salonga Rd,Northport,NY,11768,US,40.893570000000004,-73.3365,0,1,0,1,1,1
2107,7111 3rd Ave,Brooklyn,NY,11209,US,40.63386,-74.02671,0,1,0,0,1,0
2121,1404 Union Ave,Newburgh,NY,12550,US,41.520157,-74.06918,1,1,1,0,1,1
2123,495 S. Broadway,Hicksville,NY,11801,US,40.75728,-73.5105,0,1,1,1,0,1
2127,1556 Broadway,Brooklyn,NY,11221,US,40.692505,-73.860337,0,1,0,0,0,0
2128,71-67 Yellowstone Blvd,Forest Hills,NY,11375,US,40.720851,-73.855064,0,1,0,1,1,0
2133,4310 Lakeville Rd,Geneseo,NY,14454,US,42.800181,-77.781377,1,0,0,0,0,0
2134,2781 Lakeville Rd,Avon,NY,14414,US,42.865944,-77.712621,0,0,0,1,0,0
2135,4 Chevy Dr,East Syracuse,NY,13057,US,43.060683000000004,-76.065678,1,0,0,0,1,0
2146,490 W. Old Country Rd,Hicksville,NY,11801,US,40.75827,-73.54293,0,1,1,1,0,1
2150,One Commerce Plaza,Albany,NY,12210,US,42.654602000000004,-73.759132,0,0,0,0,0,0
2170,8922 Roosevelt Ave,Flushing,NY,11372,US,40.748217,-73.877113,0,1,0,1,1,0
2174,22 Main St,Queensbury,NY,12804,US,43.301158,-73.665398,1,0,1,1,1,0
2184,1425 Washington Ave,Albany,NY,12206,US,42.689654,-73.819927,0,0,0,1,1,0
2186,17915 HILLSIDE AVE,JAMAICA,NY,11432,US,40.712728999999996,-73.783932,0,1,0,1,1,0
2202,1591 Central Park Ave,Yonkers,NY,10710,US,40.953336,-73.843455,0,0,0,1,1,0
2209,158 Shore Rd,Port Washington,NY,11050,US,40.842419,-73.707856,0,0,0,0,1,1
2210,281 Walt Whitman Rd,Huntington Station,NY,11746,US,40.817721,-73.411738,0,1,0,1,1,0
2216,2148 White Plains Rd,Bronx,NY,10462,US,40.854813,-73.867501,0,1,0,1,1,0
2222,33 Utica St,Clinton,NY,13323,US,43.052199,-75.374346,0,0,0,1,0,0
2223,213 Genesee St,Oneida,NY,13421,US,43.078542999999996,-75.64572,1,0,0,0,1,0
2226,45 Quaker Ave,Cornwall,NY,12518,US,41.433789000000004,-74.039309,0,0,0,1,0,0
2229,421 Route 211 E,Middletown,NY,10940,US,41.456144,-74.385932,1,0,0,1,1,0
2234,1780 E Gun Hill Rd,Bronx,NY,10469,US,40.863307,-73.83434799999999,0,1,0,0,1,0
2242,9 Gramatan Ave # 15,Mount Vernon,NY,10550,US,40.912651000000004,-73.83699200000001,0,0,1,1,1,0
2247,7858 State Route 434,Apalachin,NY,13732,US,42.058745,-76.139779,0,0,0,0,0,0
2249,9827 River Rd,Utica,NY,13502,US,43.126521999999994,-75.23708,1,1,0,0,1,0
2251,80 West Ave,Saratoga Springs,NY,12866,US,43.079781,-73.80353199999999,1,1,1,1,1,0
2263,3504 Bell Blvd,Bayside,NY,11361,US,40.7688,-73.77405999999999,0,0,0,1,1,0
2264,23-40 Bell Blvd,Bayside,NY,11361,US,40.781151,-73.776039,0,0,0,1,1,0
2265,219-02 Horace Harding Blvd,Flushing,NY,11364,US,40.748269,-73.758326,0,0,0,1,1,0
2266,1939 Linden Blvd,Brooklyn,NY,11207,US,40.65918,-73.89065,0,0,0,0,1,0
2267,418 Coney Island Ave,Brooklyn,NY,11218,US,40.647690000000004,-73.97162,0,1,0,1,1,0
2268,3732 E. Tremont Ave,Bronx,NY,10465,US,40.826428,-73.822162,0,0,0,1,1,0
2282,392 Karner Rd,Albany,NY,12205,US,42.733573,-73.84897600000001,1,1,1,1,1,0
2283,1342 Amsterdam Ave,New York,NY,10027,US,40.81362,-73.95614,0,0,0,1,1,0
2290,601 Jericho Tpke.,New Hyde Park,NY,11040,US,40.73209,-73.68824000000001,0,1,0,1,1,0
2292,120 Hoosick St,Troy,NY,12180,US,42.738964,-73.67739300000001,1,1,0,1,1,0
2302,11 Skyway Shopping Ctr,Plattsburgh,NY,12901,US,44.679589,-73.451431,1,1,1,0,1,0
2303,138-17 Hillside Ave,Jamaica,NY,11435,US,40.704601000000004,-73.816023,0,0,0,0,1,0
2304,4399a White Plains Rd,Bronx,NY,10466,US,40.898365000000005,-73.854534,0,0,0,0,1,0
2305,2 E Kingsbridge Ave,Bronx,NY,10468,US,40.867306,-73.89719699999999,0,0,0,0,1,0
2307,654 Bear Swamp Rd,Peru,NY,12972,US,44.57799,-73.50844000000001,0,0,0,0,0,0
2315,1128 Duanesburg Rd.,Rotterdam,NY,12306,US,42.781403000000005,-74.028778,0,0,0,1,1,0
2317,69 Main St,Wynantskill,NY,12198,US,42.697394,-73.646176,0,0,0,1,0,0
2323,851 Yonkers Ave,Yonkers,NY,10704,US,40.920513,-73.86125799999999,0,1,0,1,0,1
2333,1769 Arthurkill Rd.,Staten Island,NY,10312,US,40.559419,-74.197728,0,1,0,1,1,0
2338,132 Bronx River Rd,Yonkers,NY,10704,US,40.905227000000004,-73.857973,0,1,0,1,0,1
2346,850 Bronx River Rd,Yonkers,NY,10708,US,40.92804,-73.84208100000001,0,0,0,1,0,0
2366,3915 S. Salina,Syracuse,NY,13205,US,43.010313000000004,-76.141961,0,0,0,0,1,0
2372,10009 Astoria Blvd,East Elmhurst,NY,11369,US,40.762159999999994,-73.86901,0,1,0,0,0,0
2388,80 Madison Ave,New York,NY,10016,US,40.744504,-73.985966,0,1,0,1,1,0
2389,525 8th Ave,New York,NY,10018,US,40.753669,-73.992419,0,0,0,0,0,0
2394,811 Rte 66,Hudson,NY,12534,US,42.271886,-73.723869,1,1,0,1,1,0
2398,182 Saw Mill River Rd,Elmsford,NY,10523,US,41.060801,-73.815017,0,0,0,1,0,0
2405,8775 Bay Pkwy,Brooklyn,NY,11214,US,40.598238,-73.997287,0,0,0,1,1,0
2406,1755 Francis Lewis Blvd,Whitestone,NY,11357,US,40.78237,-73.8035,0,1,0,1,1,0
2414,137 Wyckoff Ave.,Brooklyn,NY,11237,US,40.7041,-73.91854000000001,0,0,0,0,1,0
2428,440 E Sanford Blvd,Mount Vernon,NY,10550,US,40.900874,-73.81965699999999,0,0,1,1,1,0
2440,2921 James St,Syracuse,NY,13206,US,43.069255,-76.10589300000001,0,1,0,0,1,0
2457,737 4th Avenue,Brooklyn,NY,11232,US,40.660509999999995,-73.99759,0,0,0,0,1,0
2460,255 West Seneca Street,Oswego,NY,13126,US,43.452968,-76.530612,1,0,0,0,1,0
2471,4007 Merrick Rd,Seaford,NY,11783,US,40.66676,-73.48401,0,0,0,1,0,0
2486,38 A Mill Rd,Eastchester,NY,10707,US,40.956022,-73.81269300000001,0,0,0,0,0,0
2488,574 Merrick Rd,Rockville Centre,NY,11570,US,40.65387,-73.63242,0,0,0,1,1,0
2506,509 State Route 67,Malta,NY,12020,US,42.970351,-73.794791,0,0,0,1,0,0
2510,1003 Troy-Schenectady Rd,Latham,NY,12110,US,42.763956,-73.802432,1,1,1,1,1,0
2512,22 Maple St,Croton On Hudson,NY,10520,US,41.201638,-73.88495,0,0,0,1,0,0
2513,2095 Rt 208 East,Montgomery,NY,12549,US,41.514967999999996,-74.208139,0,0,0,0,1,0
2518,30 N Main St,New City,NY,10956,US,41.15027,-73.988001,0,1,0,1,1,0
2521,60 Broadway,Menands,NY,12204,US,42.682232,-73.732051,0,0,0,0,1,0
2534,4886 West Seneca Turnpike,Syracuse,NY,13215,US,43.005214,-76.178224,0,0,0,0,0,0
2538,770 Forest Ave,Staten Island,NY,10310,US,40.628759,-74.11491099999999,0,1,0,1,0,0
2539,1131 Bay St,Staten Island,NY,10305,US,40.615274,-74.066789,0,1,0,1,1,0
2543,3804 Boston Post Rd,Bronx,NY,10475,US,40.88126,-73.83863000000001,0,0,0,0,1,0
2544,3414 State Route 11,Malone,NY,12953,US,44.847765,-74.310183,1,1,0,0,0,0
2555,747 Route 9,Fishkill,NY,12524,US,41.538342,-73.90117,1,0,0,1,0,0
2568,2813 Jerusalem Ave,North Bellmore,NY,11710,US,40.69192,-73.52759,0,1,0,1,1,1
2570,3015 Mermaid Ave,Brooklyn,NY,11224,US,40.575540000000004,-73.99715,0,1,0,1,1,0
2571,701 Allerton Ave,Bronx,NY,10467,US,40.865579,-73.867147,0,1,0,1,1,0
2613,9555 Brewerton Rd,Brewerton,NY,13029,US,43.232215000000004,-76.140455,0,0,0,0,0,0
2624,3041 East Ave/ Rt 49,Central Square,NY,13036,US,43.286812,-76.130546,1,0,0,0,1,0
2625,6584 Thompson Rd,Syracuse,NY,13206,US,43.089690000000004,-76.091376,0,1,0,0,1,0
2626,1636 Central Ave,Colonie,NY,12205,US,42.720246,-73.836286,1,1,1,1,1,0
2637,160 Church Street,Amsterdam,NY,12010,US,42.937712,-74.17966700000001,1,1,1,0,1,0
2650,457 Albany Shaker Rd,Albany,NY,12211,US,42.705415,-73.776314,0,0,0,0,1,0
2683,3115 Route 22,Patterson,NY,12563,US,41.516402,-73.59145,0,0,0,0,0,0
2685,146-17 Jamaica Ave,Jamaica,NY,11435,US,40.70195,-73.80825,0,0,0,0,1,0
2687,180 West Service Rd,Staten Island,NY,10314,US,40.589290000000005,-74.194038,0,1,0,1,1,0
2688,9 W 1st St S,Fulton,NY,13069,US,43.323982,-76.42302,1,0,0,0,1,0
2691,9217 Jamaica Ave,Woodhaven,NY,11421,US,40.693459999999995,-73.85271999999999,0,0,0,0,1,0
2696,585 Ulster Avenue,Kingston,NY,12401,US,41.945157,-73.996305,1,1,1,1,1,0
2701,2100 Empire Blvd,Webster,NY,14580,US,43.196992,-77.498866,1,1,1,1,1,0
2702,62 North Ave,Webster,NY,14580,US,43.213887,-77.430361,1,1,1,1,1,0
2703,11611 Liberty Ave,South Richmond Hill,NY,11419,US,40.68575,-73.8263,0,0,0,0,1,0
2704,6681 Collamer Rd,De Witt,NY,13057,US,43.104978,-76.058424,1,0,0,0,1,0
2705,1607 Rte 146,Rexford,NY,12148,US,42.861098,-73.888738,0,0,0,0,0,0
2743,1427 Linden Blvd,Brooklyn,NY,11212,US,40.654987,-73.907377,0,0,0,0,1,0
2770,741 Lake Ave,Rochester,NY,14613,US,43.178639000000004,-77.631821,0,0,0,0,0,0
2771,2055 Fairport Nine Mile Point,Penfield,NY,14526,US,43.133911,-77.441992,0,0,0,1,1,0
2781,409 7th North Street,Liverpool,NY,13088,US,43.091217,-76.170146,0,0,0,0,1,0
2786,13320 Rockaway Blvd,South Ozone Park,NY,11420,US,40.6745,-73.80473,0,1,0,0,0,0
2792,5987 Broadway #89,Bronx,NY,10471,US,40.89012,-73.898381,0,0,0,0,0,0
2796,4206 Nys Route 31,Clay,NY,13041,US,43.185466999999996,-76.222038,0,0,0,0,0,0
2797,211 Main St,Binghamton,NY,13905,US,42.105084000000005,-75.933894,0,0,0,1,0,0
2817,324 Troy Rd,Rensselaer,NY,12144,US,42.645909,-73.697786,1,0,1,0,1,0
2818,5194 W Taft Rd,North Syracuse,NY,13212,US,43.121549,-76.15781199999999,0,0,0,0,1,0
2860,53 West 116th St,New York,NY,10026,US,40.80177,-73.94882,0,0,0,1,1,0
2871,1852 Route 112,Coram,NY,11727,US,40.891062,-73.01387199999999,0,0,0,0,0,1
2878,925 Montauk Hwy,Copiague,NY,11726,US,40.66961,-73.39174,0,0,1,1,1,0
2879,1238 Washington St,Watertown,NY,13601,US,43.959737,-75.913717,1,1,1,0,1,0
2880,26370 US Route 11,Evans Mills,NY,13637,US,44.050031,-75.83521999999999,1,0,0,0,0,0
2883,942 Jefferson Rd,Henrietta,NY,14467,US,43.087362,-77.611948,0,1,0,0,1,0
2885,1300 Scottsville Rd,Rochester,NY,14624,US,43.115365000000004,-77.663128,1,1,1,1,1,0
2895,3685 Bruckner Blvd,Bronx,NY,10461,US,40.85256,-73.8273,0,1,0,1,1,0
2896,1854 Hylan Blvd,Staten Island,NY,10306,US,40.583951,-74.094548,0,0,0,1,1,1
2897,1427 Sheepshead Bay Rd,Brooklyn,NY,11235,US,40.587540000000004,-73.95434,0,1,0,1,1,1
2898,40 Empire Blvd.,Brooklyn,NY,11225,US,40.663134,-73.961396,0,0,0,1,1,0
2899,10962 Francis Lewis Blvd,Jamaica,NY,11429,US,40.706825,-73.751408,0,1,0,0,1,0
2900,13344 150th St,Jamaica,NY,11436,US,40.66714,-73.78965,0,0,0,0,0,0
2901,2083 Lexington Ave,New York,NY,10035,US,40.804641,-73.937063,0,0,0,0,1,0
2903,1733 Jerome Avenue,Bronx,NY,10453,US,40.847596,-73.912414,0,0,0,0,1,0
2904,5501 Broadway,Bronx,NY,10460,US,40.877016,-73.906547,0,0,0,0,1,0
2908,1225 1st Ave,New York,NY,10021,US,40.764146000000004,-73.95897099999999,0,1,0,1,0,0
2910,269 Beach 116th St,Far Rockaway,NY,11694,US,40.581153,-73.838172,0,0,0,0,1,0
2923,13850 Jamaica Ave,Jamaica,NY,11435,US,40.702467999999996,-73.81376,0,0,0,0,1,0
2941,150-B Greaves Lane,Staten Island,NY,10308,US,40.551682,-74.14585600000001,0,0,0,1,0,0
2942,4000 Hylan Blvd,Staten Island,NY,10308,US,40.541897999999996,-74.145978,0,0,0,1,0,0
2945,56 E Sunrise Hwy,Merrick,NY,11566,US,40.663512,-73.548873,0,0,0,1,0,0
2946,901 Huguenot Ave,Staten Island,NY,10312,US,40.532409,-74.191749,0,1,0,1,1,0
2964,1201 Victory Blvd,Staten Island,NY,10301,US,40.616356,-74.10386700000001,0,0,0,0,1,0
2968,112 N Genesee St,Utica,NY,13502,US,43.107836999999996,-75.22005899999999,1,1,0,0,1,0
2969,505 West State Street,Herkimer,NY,13350,US,43.022698999999996,-74.99194200000001,1,0,0,0,1,0
2970,2112 Niagara Falls Blvd,Tonawanda,NY,14150,US,43.011809,-78.822473,0,1,0,0,1,0
2971,693 State Route 3,Plattsburgh,NY,12901,US,44.695084,-73.51520699999999,1,1,1,0,1,0
2974,4115 3rd Ave,Bronx,NY,10457,US,40.844363,-73.897348,0,0,0,0,1,0
2993,61-58 Springfield Blvd,Oakland Gardens,NY,11364,US,40.747484,-73.756007,0,0,0,1,1,0
2994,950 Allerton Ave,Bronx,NY,10469,US,40.865573,-73.85977,0,1,0,0,1,0
3029,4307 Astoria Blvd,Astoria,NY,11105,US,40.76892,-73.90621999999999,0,0,0,1,1,0
3038,3117 30th Ave,Astoria,NY,11102,US,40.766690000000004,-73.92058,0,0,0,0,1,0
3043,2255 Hudson Ave,Irondequoit,NY,14617,US,43.20943,-77.60130600000001,0,0,0,0,1,0
3048,59 Jackson Ave,Syosset,NY,11791,US,40.824354,-73.502241,0,0,0,1,1,0
3049,573 Lyell Ave,Rochester,NY,14606,US,43.164566,-77.647488,0,1,0,1,1,0
3053,389 Atlantic Ave,Freeport,NY,11520,US,40.644465000000004,-73.593006,0,1,0,1,0,0
3054,14601 Rockaway Blvd,Jamaica,NY,11436,US,40.6737,-73.79142,0,0,0,0,0,0
3056,148 Smith St,Brooklyn,NY,11201,US,40.686664,-73.99061999999999,0,0,0,1,1,0
3057,6402 7th Ave,Brooklyn,NY,11220,US,40.634570000000004,-74.01451,0,0,0,0,1,0
3059,2740 W. Henrietta Rd,Rochester,NY,14623,US,43.096869,-77.631485,1,0,1,1,1,0
3062,1041 Prospect Ave,Bronx,NY,10459,US,40.825023,-73.899703,0,0,0,0,1,0
3070,432 Main St,Massena,NY,13662,US,44.92031,-74.888894,1,1,0,0,1,0
3071,115 Veterans Highway,Commack,NY,11725,US,40.8394,-73.27962,1,1,1,1,1,0
3075,306 Fayette St,Manlius,NY,13104,US,43.004594,-75.982275,0,0,0,1,1,0
3085,81 Jericho Tpke,Jericho,NY,11753,US,40.77899,-73.561656,0,0,0,1,0,0
3106,1011 Route 109,North Lindenhurst,NY,11757,US,40.716,-73.39313,0,0,0,1,1,0
3107,4322 Ditmars Blvd,Astoria,NY,11105,US,40.775746000000005,-73.910327,0,0,0,1,1,0
3112,2444 Route 55 & Beekman Rd,Poughquag,NY,12570,US,41.628977,-73.69673900000001,0,0,0,0,0,0
3113,291 Willow Grove Rd,Stony Point,NY,10980,US,41.220703,-74.016603,0,1,0,1,1,0
3115,875 3rd Ave,New York,NY,10022,US,40.757363,-73.96963199999999,0,1,0,1,0,0
3116,410 Wheeler Rd,Hauppauge,NY,11788,US,40.809585,-73.217303,0,0,0,0,1,0
3117,18711 Jamaica Ave,Jamaica,NY,11423,US,40.710487,-73.772013,0,0,0,0,0,0
3118,286 Express Drive South,Medford,NY,11763,US,40.82314,-72.99813,0,1,1,1,1,1
3120,843 East 149th St,Bronx,NY,10455,US,40.81245,-73.90478,0,1,0,0,1,0
3121,26 Burnside Ave,Bronx,NY,10453,US,40.853711,-73.90868499999999,0,0,0,0,1,0
3123,3775 Expressway Dr N,Ronkonkoma,NY,11779,US,40.81054,-73.15843000000001,0,0,0,1,1,1
3129,873 Holt Rd,Webster,NY,14580,US,43.216561,-77.447273,1,1,1,1,1,0
3133,10 Center Dr,Central Valley,NY,10917,US,41.314403999999996,-74.135098,0,0,0,0,0,0
3153,2241 Southern Blvd,Bronx,NY,10458,US,40.849231,-73.883549,0,1,0,0,1,0
3156,601 2nd Ave,New York,NY,10016,US,40.744015000000005,-73.976546,0,1,0,1,1,0
3158,1530 Route 9,Clifton Park,NY,12065,US,42.84255,-73.747425,1,1,1,1,1,0
3171,1815 Avenue U,Brooklyn,NY,11229,US,40.599318,-73.952901,0,1,0,1,1,0
3173,1650 Bruckner Blvd,Bronx,NY,10473,US,40.823475,-73.873938,0,0,0,0,1,0
3174,113 Albany Post Rd,Buchanan,NY,10511,US,41.257721000000004,-73.93422199999999,0,0,0,0,0,0
3179,111a Independant Way,Brewster,NY,10509,US,41.421329,-73.629637,0,0,0,0,1,0
3180,66 Lafayette Ave,Suffern,NY,10901,US,41.115777,-74.151927,1,1,0,1,0,0
3182,2222 Forest Ave,Staten Island,NY,10303,US,40.626583000000004,-74.163771,0,1,0,1,0,0
3186,1710 Eastern Pkwy,Brooklyn,NY,11223,US,40.672649,-73.91196,0,1,0,0,1,0
3188,4744 State Route 7,Hoosick Falls,NY,12090,US,42.853361,-73.345105,0,0,0,0,1,0
3189,1630 Madison Ave,New York,NY,10029,US,40.7953,-73.9483,0,0,0,1,1,0
3192,422 Washington Ave,Peekskill,NY,10566,US,41.281835,-73.926234,0,0,0,1,1,0
3194,94 Croton Ave,Ossining,NY,10562,US,41.165927,-73.85633399999999,0,0,0,1,0,0
3195,906 Coney Island Ave,Brooklyn,NY,11218,US,40.63535,-73.96802,0,1,0,1,1,0
3203,81 Knollwood Rd,White Plains,NY,10607,US,41.038685,-73.80843399999999,0,0,0,1,0,0
3205,154 Westchester Ave,White Plains,NY,10601,US,41.032617,-73.756986,1,0,1,1,0,1
3214,125 Portion Rd,Ronkonkoma,NY,11779,US,40.826782,-73.109207,0,0,0,1,1,1
3216,138 Ulster Ave,Saugerties,NY,12477,US,42.08016,-73.959486,0,0,0,1,1,0
3218,365 Dix Avenue,Queensbury,NY,12804,US,43.315713,-73.609724,1,0,1,1,1,0
3232,43 Jamaica Ave,Brooklyn,NY,11207,US,40.678124,-73.898267,0,0,0,0,1,0
3233,1993 Atlantic Ave,Brooklyn,NY,11233,US,40.676879,-73.916084,0,0,0,0,1,0
3236,289 7th Ave,New York,NY,10001,US,40.746216,-73.99399100000001,0,0,0,1,1,0
3245,4521 3rd Ave,Bronx,NY,10457,US,40.853775,-73.891418,0,0,0,0,1,0
3250,1201 Deer Park Ave,North Babylon,NY,11703,US,40.736803,-73.319938,0,0,0,1,1,0
3251,3804 Junction Blvd,Corona,NY,11368,US,40.749488,-73.869754,0,1,0,0,1,0
3253,6390 Amboy Rd,Staten Island,NY,10309,US,40.521733000000005,-74.216854,0,0,1,1,0,0
3265,38 W. Dyke St.,Wellsville,NY,14895,US,42.116872,-77.94111099999999,0,1,0,0,1,0
3286,270 Route 59,Suffern,NY,10901,US,41.112331,-74.10427800000001,1,1,0,1,0,0
3288,5702 2nd Ave,Brooklyn,NY,11220,US,40.64516,-74.02135,0,0,0,0,1,0
3290,110 West 145th St,New York,NY,10039,US,40.820803000000005,-73.937373,0,0,0,0,0,0
3291,250 E Houston St,New York,NY,10002,US,40.721895,-73.984735,0,0,0,1,1,0
3294,2500 Albany St,Schenectady,NY,12304,US,42.783957,-73.913143,0,0,1,1,1,0
3297,7519 5th Avenue,Brooklyn,NY,11209,US,40.628842999999996,-74.02279300000001,0,1,0,0,1,0
3299,200 E Main St,Huntington,NY,11743,US,40.880779,-73.396964,0,0,0,1,1,0
3300,11602 Metropolitan Ave,Richmond Hill,NY,11418,US,40.70746,-73.83623,0,0,0,0,0,0
3304,749 Hoosick Rd,Troy,NY,12180,US,42.746076,-73.641685,1,1,0,1,1,0
3306,3366 Rt. 9H,Valatie,NY,12184,US,42.427347,-73.688449,0,0,0,1,0,0
3309,105 West 125th Street,New York,NY,10027,US,40.808023999999996,-73.945751,0,0,0,1,1,0
3312,1467 Nostrand Ave,Brooklyn,NY,11226,US,40.65038,-73.94941999999999,0,1,0,1,1,0
3313,17 Flatbush Ave,Brooklyn,NY,11217,US,40.68817,-73.98056,0,1,1,0,0,0
3314,30 Rockefeller Ctr,New York,NY,10112,US,40.759305,-73.981448,0,0,0,0,0,0
3315,680 Arthur Kill Rd,Staten Island,NY,10308,US,40.560203,-74.163601,0,0,0,1,0,0
3332,1299 Saratoga Rd,Gansevoort,NY,12831,US,43.242379,-73.682874,0,0,0,1,0,0
3337,1802 Penfield Rd,Penfield,NY,14526,US,43.129332,-77.47778100000001,0,0,0,1,1,0
3346,97 Stuyvesant Pl,Staten Island,NY,10301,US,40.643685,-74.07736899999999,0,0,0,0,1,0
3355,5696 S. Transit Rd,Lockport,NY,14094,US,43.148502,-78.697343,1,1,0,0,1,0
3356,265 East Jericho Tpk,Mineola,NY,11501,US,40.75485,-73.6249,0,1,0,1,1,0
3359,5901 Church Avenue,Brooklyn,NY,11203,US,40.65274,-73.921715,0,1,0,0,1,0
3367,2295 Hempstead Tpke,East Meadow,NY,11554,US,40.72531,-73.55028,1,1,0,1,1,0
3386,207 W. Merrick Rd,Valley Stream,NY,11580,US,40.667902000000005,-73.70525699999999,0,0,0,1,1,0
3390,597 Hicksville Rd,Bethpage,NY,11714,US,40.74105,-73.49642,0,1,0,1,1,0
3391,269 8th Ave,New York,NY,10011,US,40.745665,-73.998365,0,0,0,1,1,0
3392,680 Route 9,Fishkill,NY,12524,US,41.534167,-73.897462,1,0,0,1,0,0
3393,640 Conduit Blvd,Brooklyn,NY,11208,US,40.67528,-73.86582,0,0,0,0,0,0
3398,167 West Main St,Victor,NY,14564,US,42.984768,-77.41485,1,0,1,0,1,0
3406,6122 Fresh Pond Rd,Middle Village,NY,11379,US,40.71382,-73.9012,0,1,0,1,0,0
3407,13328 Springfield Blvd,Jamaica,NY,11413,US,40.680506,-73.753289,0,1,0,0,0,0
3410,731 Nesconset Hwy,Smithtown,NY,11787,US,40.848499,-73.166809,0,1,0,1,1,0
3411,239 Beach 20th St,Far Rockaway,NY,11691,US,40.596555,-73.754616,0,0,0,1,0,0
3417,2200 Sheridan Dr,Tonawanda,NY,14223,US,42.98103,-78.85276999999999,0,0,0,1,1,0
3424,6667 Fresh Pond Rd,Fresh Pond,NY,11385,US,40.706958,-73.896997,0,0,0,1,1,0
3429,25609 Union Turnpike,Glen Oaks,NY,11004,US,40.74566,-73.71477,0,0,0,1,1,0
3431,2302 Knapp St # 2310,Brooklyn,NY,11229,US,40.596574,-73.933584,0,1,0,1,1,0
3432,1760 2nd Ave,New York,NY,10128,US,40.781240000000004,-73.94915999999999,0,0,0,1,1,0
3434,5951 Queens Midtown Expy,Maspeth,NY,11378,US,40.72701,-73.90678199999999,0,0,0,1,0,0
3436,203 Lake St,Penn Yan,NY,14527,US,42.65648,-77.056062,0,1,0,1,1,0
3437,1792 Columbia Tpke,Schodack,NY,12033,US,42.551489000000004,-73.674356,0,0,0,0,1,0
3440,95 Miller Rd,Castleton On Hudson,NY,12033,US,42.579665999999996,-73.68086600000001,0,0,0,0,1,0
3441,1231 State Route 31,Macedon,NY,14502,US,43.064737,-77.31878,1,0,0,1,0,0
3454,795 East Jericho Tpk,Huntington Station,NY,11746,US,40.83475,-73.38223,0,1,0,1,1,0
3457,1691 East Ave,Rochester,NY,14610,US,43.146112,-77.559997,0,0,0,0,0,0
3476,587 Old Country Rd,Plainview,NY,11803,US,40.770852000000005,-73.49438,0,0,0,1,1,0
3480,511 E. 163rd St,Bronx,NY,10451,US,40.824457,-73.90923199999999,0,0,1,1,0,0
3481,746 S. Crouse Ave,Syracuse,NY,13210,US,43.041657,-76.136767,0,0,0,0,1,0
3484,75 Christopher St,New York,NY,10014,US,40.733638,-74.003045,0,0,0,1,1,0
3486,650 Troy Schenectady Rd,Latham,NY,12110,US,42.754395,-73.772453,1,1,1,1,1,0
3488,1034 North Broadway,Yonkers,NY,10701,US,40.969297999999995,-73.88291600000001,0,0,0,0,0,0
3494,10 Newkirk Plaza,Brooklyn,NY,11226,US,40.635215,-73.962497,0,1,0,1,1,0
3495,1093 Second Ave,New York,NY,10022,US,40.759726,-73.965148,0,1,0,1,0,0
3496,337 South Oyster Bay Rd,Plainview,NY,11803,US,40.786522,-73.502926,0,0,0,1,1,0
3509,2365 Central Park Ave,Yonkers,NY,10710,US,40.97927,-73.83062,0,0,0,1,1,0
3513,590 Nepperhan Ave,Yonkers,NY,10703,US,40.945839,-73.882529,0,1,0,0,0,0
3517,1000 Richmond Ter,Staten Island,NY,10301,US,40.637190999999994,-74.127566,0,0,0,0,1,0
3525,900 E. Genesee St,Chittenango,NY,13037,US,43.049011,-75.90243199999999,0,0,0,0,1,0
3528,7007 Myrtle Ave,Glendale,NY,11385,US,40.70215,-73.88068,0,0,0,1,1,0
3535,186 Wolf Rd,Colonie,NY,12205,US,42.723289,-73.80138000000001,1,1,1,1,1,0
3540,11716 Queens Blvd,Forest Hills,NY,11375,US,40.715113,-73.832723,0,1,0,1,1,0
3541,4008 Bell Blvd,Bayside,NY,11361,US,40.764007,-73.77132900000001,0,0,0,1,1,0
3546,476 Second Ave,New York,NY,10016,US,40.740120000000005,-73.97889,0,1,0,1,1,0
3557,175 Varick St,New York,NY,10014,US,40.727247999999996,-74.00559,0,0,0,1,1,0
3558,1375 Rockaway Parkway,Brooklyn,NY,11236,US,40.646209999999996,-73.90333000000001,0,1,0,1,1,0
3562,1495 Montauk Hwy,Mastic,NY,11950,US,40.805959,-72.846029,0,0,0,0,0,0
3563,6120 Fresh Meadow Ln,Fresh Meadows,NY,11365,US,40.737593,-73.795956,0,0,0,1,1,0
3565,2451 Eastchester Rd,Bronx,NY,10469,US,40.862390000000005,-73.84366,0,1,0,0,1,0
3568,636 City Island Ave,Bronx,NY,10464,US,40.855471,-73.791372,0,0,0,0,0,0
3588,1433 2nd Avenue,New York,NY,10021,US,40.770379999999996,-73.95716,0,1,0,1,0,0
3598,369 North Peterboro St,Canastota,NY,13032,US,43.090212,-75.75124699999999,0,0,0,0,1,0
3599,3701 Nostrand Ave,Brooklyn,NY,11235,US,40.593593,-73.940374,0,1,0,1,1,1
3601,578 Atlantic Ave,Brooklyn,NY,11217,US,40.684356,-73.978662,0,1,1,0,0,0
3605,448 Fifth Ave,Brooklyn,NY,11215,US,40.669084000000005,-73.986503,0,0,0,1,1,0
3611,1040 Westchester Ave,Bronx,NY,10459,US,40.824408,-73.892113,0,0,0,0,1,0
3613,1510 Elm Avenue,Brooklyn,NY,11230,US,40.617853000000004,-73.95967900000001,0,1,0,0,1,0
3614,1198 Troy Schenectady Rd,Latham,NY,12110,US,42.770297,-73.821519,1,1,1,1,1,0
3615,241-A Rockaway Pkwy,Brooklyn,NY,11212,US,40.66163,-73.92036,0,0,0,0,1,0
3629,46 E 167th St,Bronx,NY,10452,US,40.83556,-73.920985,0,0,0,0,1,0
3632,647 Maple Ave,Saratoga Springs,NY,12866,US,43.123196,-73.76861,1,1,1,1,1,0
3643,3014 Route 50,Saratoga Springs,NY,12866,US,43.100061,-73.748503,1,1,1,1,1,0
3644,6800 Transit Rd,Williamsville,NY,14221,US,42.952757,-78.69765100000001,1,1,1,0,1,0
3648,140 Delancey Street,New York,NY,10002,US,40.718323999999996,-73.98690400000001,0,0,0,1,1,0
3653,97 Troy Rd,East Greenbush,NY,12061,US,42.620497,-73.702105,0,0,0,1,1,0
3658,126 35th St,Brooklyn,NY,11232,US,40.655702000000005,-74.005765,0,0,0,0,1,0
3663,1420 Broadway,Schenectady,NY,12306,US,42.802871,-73.95601500000001,0,0,0,1,1,0
3664,285-291 Glen Street,GLEN COVE,NY,11542,US,40.859326,-73.620558,0,1,0,1,1,0
3665,74-13 Roosevelt Ave,Jackson Heights,NY,11372,US,40.74657,-73.89079,0,1,0,1,1,0
3677,130 Church St,New York,NY,10007,US,40.714155,-74.008661,0,0,0,0,0,0
3684,969 Route 6,Mahopac,NY,10541,US,41.391603,-73.723519,0,0,0,1,1,0
3688,600 Lake Flower Avenue,Saranac Lake,NY,12983,US,44.311440000000005,-74.116671,0,0,0,0,1,0
3691,1851 E Main St,Mohegan Lake,NY,10547,US,41.321373,-73.85592700000001,1,0,0,1,1,0
3700,114 Bruckner Blvd,Bronx,NY,10454,US,40.804446999999996,-73.92218100000001,0,0,0,0,1,0
3701,215 1st Ave,New York,NY,10003,US,40.730501000000004,-73.98328000000001,0,1,0,1,1,0
3707,9475 Airport Plaza,Dansville,NY,14437,US,42.568402,-77.71767,0,0,0,1,1,0
3710,191 Mineola Ave,Roslyn Heights,NY,11577,US,40.785731,-73.64909499999999,0,0,0,1,0,0
3712,112 Broadway,Greenlawn,NY,11740,US,40.865881,-73.36409599999999,0,0,0,1,0,0
3727,5401 108th St,Corona,NY,11368,US,40.742096000000004,-73.854127,0,1,0,0,1,0
3734,815 10th Ave,New York,NY,10019,US,40.767488,-73.989675,0,1,0,1,1,0
3736,Windsor Highway Route 32,Vails Gate,NY,12584,US,41.454469,-74.057849,0,0,0,0,0,0
3738,127 East 23rd St,New York,NY,10010,US,40.739940999999995,-73.985376,0,1,0,1,0,0
3740,1391 Madison Ave,New York,NY,10029,US,40.787729999999996,-73.95359,0,0,0,1,1,0
3741,579 Peninsula Blvd,Hempstead,NY,11550,US,40.697988,-73.629056,0,1,0,1,0,1
3742,4128 Queens Blvd,Sunnyside,NY,11104,US,40.74341,-73.92268,0,0,0,1,1,0
3744,250 E. 40th St,New York,NY,10016,US,40.748527,-73.973213,0,1,0,1,1,0
3753,2366 Grand Concourse,Bronx,NY,10458,US,40.859114,-73.89856999999999,0,1,0,0,1,0
3767,132 Nassau St,New York,NY,10038,US,40.711056,-74.006579,0,0,0,1,1,0
3781,411 Violet Ave,Poughkeepsie,NY,12601,US,41.740296,-73.910137,0,1,1,1,1,1
3784,2150 Chili Ave,Rochester,NY,14624,US,43.132503,-77.688257,1,1,1,1,1,0
3788,103 North Caroline St,Herkimer,NY,13350,US,43.021453,-74.997579,1,0,0,0,1,0
3793,90-15 Queens Blvd.,Elmhurst,NY,11373,US,40.734344,-73.87084899999999,0,1,1,0,0,1
3803,2815 Middle Country Rd,Lake Grove,NY,11755,US,40.860141999999996,-73.11233299999999,0,0,0,0,0,0
3804,10801 Grand Central Pkwy,East Elmhurst,NY,11369,US,40.76529,-73.86182,0,1,0,0,0,0
3805,10702 Grand Central Pky East,East Elmhurst,NY,11369,US,40.76747,-73.86489,0,1,0,0,0,0
3809,3319 Fulton St,Brooklyn,NY,11208,US,40.683502000000004,-73.873018,0,0,0,0,0,0
3812,7389 Utica Blvd,Lowville,NY,13367,US,43.777309,-75.481447,1,0,0,0,0,0
3823,140 E. 170th St,Bronx,NY,10452,US,40.839013,-73.9149,0,0,0,0,1,0
3829,395 Hudson St,New York,NY,10014,US,40.729354,-74.007149,0,0,0,1,1,0
3848,1320 Hutchinson River Pkwy,Bronx,NY,10461,US,40.850213000000004,-73.837108,0,1,0,1,1,0
3849,1325 Hutchinson River Pkwy,Bronx,NY,10461,US,40.845561,-73.838463,0,1,0,1,1,0
3857,5760 Transit Rd,Depew,NY,14043,US,42.912162,-78.6972,0,1,1,1,1,0
3858,91-23 Queens Blvd,Elmhurst,NY,11373,US,40.733567,-73.869722,0,1,1,0,0,1
3859,1791 Dutch Broadway,Elmont,NY,11003,US,40.689316,-73.708547,0,1,0,1,1,0
3865,3317 Chambers Rd,Horseheads,NY,14845,US,42.160476,-76.878552,1,0,0,0,1,0
3875,565 West Main St,Springville,NY,14141,US,42.509403999999996,-78.68820699999999,1,0,0,0,1,0
3878,855 East State St,Olean,NY,14760,US,42.075403,-78.411519,1,0,0,1,1,0
3880,2675 North Jerusalem Rd,East Meadow,NY,11554,US,40.706219,-73.536018,1,1,0,1,1,0
3892,101 Pulaski Rd,Kings Park,NY,11754,US,40.88463,-73.260922,0,0,0,0,1,0
3902,13007 20th Ave,College Point,NY,11356,US,40.78197,-73.8383,0,1,1,1,1,0
3904,929 Amsterdam Ave,New York,NY,10025,US,40.800053000000005,-73.965594,0,1,0,1,1,0
3910,3600 Broadway,New York,NY,10031,US,40.828322,-73.94876500000001,0,0,0,0,1,0
3925,100 Chambers St,New York,NY,10007,US,40.714744,-74.007839,0,0,0,0,0,0
3939,1024 1st Avenue,New York,NY,10022,US,40.757715999999995,-73.963245,0,1,0,1,0,0
3946,1556 Ralph Ave,Brooklyn,NY,11236,US,40.639007,-73.919268,0,1,0,1,1,0
3954,3197 Horseblock Road,Medford,NY,11763,US,40.825168,-72.982105,0,1,1,1,1,1
3957,Route 6,Peekskill,NY,10566,US,41.30467,-73.880138,0,0,0,1,1,0
3966,1599 St Nicholas Ave,New York,NY,10040,US,40.854873,-73.929792,0,0,0,1,0,0
3969,103 East Main St,Canton,NY,13617,US,44.597322,-75.148119,0,0,0,0,1,0
3971,24 Newbridge Rd,Hicksville,NY,11801,US,40.76768,-73.52768,0,1,1,1,0,1
3977,279 Troy Rd,Rensselaer,NY,12061,US,42.642096,-73.700119,0,0,0,1,1,0
3978,311 Route 9w,Glenmont,NY,12077,US,42.608940999999994,-73.792463,1,0,0,1,0,0
3979,132 Market St,Potsdam,NY,13676,US,44.679217,-74.986684,1,1,0,0,1,0
3991,3682 State Hwy 30,Broadalbin,NY,12025,US,43.047869,-74.217729,0,0,0,0,0,0
3993,203 Avenue U,Brooklyn,NY,11223,US,40.596734000000005,-73.976713,0,1,0,0,1,0
3999,51 East 34th St,New York,NY,10016,US,40.747576,-73.982311,0,1,0,1,1,0
4005,677 Central Ave,Albany,NY,12206,US,42.675937,-73.785168,0,0,0,1,1,0
4007,25 Route 59,Nyack,NY,10960,US,41.093077,-73.932686,0,0,0,0,0,0
4008,699 Morris Park Ave,Bronx,NY,10462,US,40.845242999999996,-73.866268,0,1,0,1,1,0
4010,30 W Main St,Washingtonville,NY,10992,US,41.427453,-74.169134,0,0,0,1,0,0
4011,14 North Airmont Rd,Suffern,NY,10901,US,41.114771000000005,-74.113928,1,1,0,1,0,0
4012,573 Lafayette Ave,Brooklyn,NY,11205,US,40.690075,-73.951629,0,1,0,0,0,0
4017,1106 Hempstead Tpke,Franklin Square,NY,11010,US,40.708312,-73.68117099999999,0,1,0,1,1,0
4044,1197 Route 208,Monroe,NY,10950,US,41.380041,-74.174066,1,0,1,1,1,1
4048,1403 Brentwood Rd,Bayshore,NY,11706,US,40.7459,-73.241168,0,0,1,1,1,0
4050,1050 State Route 36,Hornell,NY,14843,US,42.349793,-77.668934,1,0,0,0,1,0
4054,460 Fairview Ave,Hudson,NY,12534,US,42.278276,-73.750847,1,1,0,1,1,0
4055,2285 Walden Ave,Cheektowaga,NY,14225,US,42.907173,-78.75238399999999,1,0,1,0,1,0
4057,2260 Niagara Falls Boulevard,Niagara Falls,NY,14304,US,43.098791999999996,-78.926761,1,0,1,0,1,0
4058,3 Dover Village Plaza,Dover Plains,NY,12522,US,41.734331,-73.580443,0,0,0,1,0,0
4065,989 Atlantic Ave,Baldwin,NY,11510,US,40.640065,-73.60445899999999,0,1,0,1,0,0
4066,80 Virginia Rd,White Plains,NY,10603,US,41.063757,-73.776033,0,0,0,1,0,1
4086,275 Main St,White Plains,NY,10601,US,41.033411,-73.764794,1,0,1,1,0,1
4089,7281 Oswego Rd,Liverpool,NY,13090,US,43.122765,-76.21639499999999,1,0,1,0,1,0
4111,349 Noxon Rd,Poughkeepsie,NY,12603,US,41.659558000000004,-73.848115,0,1,0,1,1,1
4112,9507 57th Ave,Elmhurst,NY,11373,US,40.736748,-73.865718,0,1,1,0,0,1
4125,1264 Main St,Buffalo,NY,14209,US,42.907823,-78.867251,0,0,0,0,1,0
4128,3500 48th St.,Long Island City,NY,11101,US,40.752368,-73.915205,0,0,0,0,0,0
4139,120 Old Country Rd,Mineola,NY,11501,US,40.739931,-73.635262,0,1,0,1,1,0
4141,2915 Amsterdam Rd,Glenville,NY,12302,US,42.854206,-74.009499,1,0,0,1,0,0
4143,1243 Montauk Hwy,Oakdale,NY,11769,US,40.741948,-73.130408,0,0,0,0,1,0
4144,360 W. 31st St,New York,NY,10001,US,40.751374,-73.997535,0,0,0,1,1,0
4153,216 Reynolds Rd,Johnson City,NY,13790,US,42.125465999999996,-75.971621,0,1,0,1,0,0
4155,Grand Central Pkwy,Flushing,NY,11371,US,40.767526000000004,-73.864982,0,0,0,0,0,0
4164,726 Old Bethpage Rd,Old Bethpage,NY,11804,US,40.764714,-73.453192,0,0,0,0,0,0
4165,55 West 55th St,New York,NY,10019,US,40.76255,-73.976814,0,1,0,1,1,0
4166,253 Post Avenue,Westbury,NY,11590,US,40.758103999999996,-73.588009,1,1,1,1,1,0
4168,2244 Downer St,Baldwinsville,NY,13027,US,43.15115,-76.35134599999999,0,1,0,0,1,0
4169,361 First Avenue,New York,NY,10010,US,40.735704999999996,-73.97949100000001,0,1,0,1,0,0
4171,130 Dyckman St,New York,NY,10040,US,40.86244,-73.925473,0,0,0,1,0,0
4172,8083 Brewerton Rd,Cicero,NY,13039,US,43.162898999999996,-76.120225,1,1,1,0,1,0
4176,1573 Western Ave,Guilderland,NY,12203,US,42.684531,-73.847918,0,0,0,1,1,0
4177,1760 Monroe Ave,Rochester,NY,14618,US,43.128907,-77.56716,0,0,0,1,1,0
4178,Grand Central Pkwy,Flushing,NY,11371,US,40.774388,-73.873159,0,0,0,0,0,0
4179,927 Tompkins St,Cortland,NY,13045,US,42.577202,-76.21492099999999,1,1,0,1,1,0
4181,6502 14th Ave,Brooklyn,NY,11219,US,40.624595,-73.999746,0,0,0,1,1,0
4186,100 North Broadway,Hicksville,NY,11801,US,40.771042,-73.526995,0,1,1,1,0,1
4194,1700 Church Ave,Brooklyn,NY,11226,US,40.649034,-73.963827,0,1,0,1,1,0
4195,1776 Forest Ave,Staten Island,NY,10303,US,40.624771,-74.148154,0,1,0,1,0,0
4203,194 Church Ave,Ballston Spa,NY,12020,US,42.993542,-73.85065300000001,0,0,0,1,0,0
4215,3112 Highway 9w,Saugerties,NY,12477,US,42.054522999999996,-73.95597,0,0,0,1,1,0
4222,121 Riverside Dr,Fultonville,NY,12072,US,42.948766,-74.35819599999999,0,0,0,0,0,0
4227,1900 Military Rd,Niagara Falls,NY,14304,US,43.097586,-78.975554,1,0,1,0,1,0
4228,420 Newbridge Rd,Hicksville,NY,11801,US,40.746825,-73.533679,0,1,1,1,0,1
4230,36 Glenhead Rd,Glen Head,NY,11545,US,40.835378999999996,-73.6224,0,0,0,0,0,0
4235,440 William Floyd Pkwy,Shirley,NY,11967,US,40.783352,-72.864696,0,0,0,1,1,0
4245,98 Roa Hook Rd,Cortlandt Manor,NY,10567,US,41.298589,-73.936436,0,0,0,0,1,0
4256,1720 Eastchester Rd,Bronx,NY,10461,US,40.846895,-73.84421999999999,0,1,0,1,1,0
4258,327 E. Fordham Rd,Bronx,NY,10458,US,40.862097,-73.89358100000001,0,1,0,0,1,0
4259,1300 Genesee St,Utica,NY,13502,US,43.095879,-75.242701,1,1,0,0,1,0
4265,1573 Lakeland Ave,Bohemia,NY,11716,US,40.780291,-73.110411,0,0,0,1,0,0
4270,334 Nassau Blvd,Garden City,NY,11530,US,40.715769,-73.661022,0,1,0,1,0,0
4289,1285 Ulster Ave,Kingston,NY,12401,US,41.969263,-73.989308,1,1,1,1,1,0
4290,159 E.116th St,New York,NY,10029,US,40.798495,-73.941011,0,0,0,1,1,0
4305,7121 18th Ave,Brooklyn,NY,11204,US,40.615646000000005,-73.993643,0,1,0,1,1,0
4306,352 Graham Ave,Brooklyn,NY,11211,US,40.714753,-73.944304,0,1,0,0,0,0
4308,162-25 Liberty Ave,Jamaica,NY,11434,US,40.702420000000004,-73.791511,0,1,0,1,1,0
4310,388 W. John St.,Hicksville,NY,11801,US,40.766507,-73.54126600000001,0,1,1,1,0,1
4312,122 S. Robinson Ave,Newburgh,NY,12550,US,41.495486,-74.022123,1,1,1,0,1,1
4314,1445 Richmond Ave,Staten Island,NY,10314,US,40.611855,-74.157499,0,1,0,1,1,0
4316,213 W Route 59,Nanuet,NY,10954,US,41.099513,-74.020713,0,0,0,0,0,1
4321,77 A Richmond Hill Rd,Staten Island,NY,10314,US,40.587896,-74.16557399999999,0,1,0,1,1,0
4324,2200 White Plains Rd,Bronx,NY,10467,US,40.857939,-73.867476,0,1,0,1,1,0
4325,880 Garrison Ave,Bronx,NY,10474,US,40.816534000000004,-73.892205,0,0,0,0,0,0
4326,318 19th St,Watervliet,NY,12189,US,42.730445,-73.703397,0,0,0,0,1,0
4327,45 Kellogg Rd,New Hartford,NY,13413,US,43.054952,-75.27709,1,1,1,0,1,0
4331,31 Schuyler St,Utica,NY,13502,US,43.107147999999995,-75.244478,1,1,0,0,1,0
4339,1392 Lexington Avenue,New York,NY,10128,US,40.783091,-73.953036,0,0,0,1,1,0
4344,643 Manhattan Ave,Brooklyn,NY,11222,US,40.72412,-73.951171,0,0,0,0,1,0
4346,1155 Erie Blvd W.,Rome,NY,13440,US,43.224678999999995,-75.486007,1,1,0,0,1,0
4350,25 Lower Hudson Rd,Green Island,NY,12183,US,42.734313,-73.696461,0,0,0,0,0,0
4352,153 E. 53rd St,New York,NY,10022,US,40.758315,-73.970706,0,1,0,1,0,0
4365,2344 Flatbush Ave,Brooklyn,NY,11234,US,40.612868,-73.926354,0,1,0,1,1,0
4374,218 E. 14th St,New York,NY,10003,US,40.732813,-73.986386,0,1,0,1,1,0
4380,230 Main St,East Aurora,NY,14052,US,42.768066999999995,-78.626168,0,0,0,1,1,0
4387,202 Glen Clove Rd,Carle Place,NY,11514,US,40.747729,-73.61802,0,0,0,0,0,1
4388,100 1st Ave,New York,NY,10009,US,40.726422,-73.985972,0,1,0,0,1,0
4390,5477-5515 Merrick Road,Massapequa,NY,11758,US,40.669369,-73.431986,1,1,0,1,0,0
4391,310 A Oakwood Avenue,Troy,NY,12182,US,42.783651,-73.655146,0,0,0,1,1,0
4392,4942 Broadway,New York,NY,10034,US,40.867661,-73.920831,0,0,0,0,1,0
4394,12165 State Route 9w,West Coxsackie,NY,12192,US,42.374905,-73.831314,0,0,0,0,0,0
4405,383 Court St,Brooklyn,NY,11231,US,40.680448999999996,-73.99667,0,0,0,1,1,0
4408,2258 1st Ave,New York,NY,10035,US,40.796023999999996,-73.935233,0,0,0,0,1,0
4419,9430 Main St,Clarence,NY,14031,US,42.972017,-78.639143,0,1,0,0,1,0
4428,567 3rd Ave,New York,NY,10016,US,40.747853000000006,-73.976373,0,1,0,1,1,0
4429,1075 Portion Rd,Farmingville,NY,11738,US,40.835562,-73.063773,0,0,0,1,1,1
4430,4202 Recreation Dr,Canandaigua,NY,14424,US,42.877862,-77.241061,1,1,0,0,1,0
4431,240 W. 40th St,New York,NY,10018,US,40.755293,-73.98925,0,0,0,0,0,0
4434,55 Cross Point Pkwy,Amherst,NY,14068,US,43.036087,-78.750268,0,0,0,0,1,0
4438,3640 Main St,Amherst,NY,14226,US,42.959542,-78.81437700000001,0,1,0,1,1,0
4441,2877 State Route 69,Parish,NY,13131,US,43.404578,-76.119381,0,0,0,0,0,0
4453,2165 Middle Country Rd,Centereach,NY,11720,US,40.858647999999995,-73.088122,1,1,1,1,0,1
4464,2155 Eggert Rd,Amherst,NY,14226,US,42.97977,-78.822327,0,1,0,1,1,0
4467,3501 Union Rd,Cheektowaga,NY,14225,US,42.909304,-78.753848,1,0,1,0,1,0
4469,2926 Avenue I,Brooklyn,NY,11210,US,40.629003000000004,-73.947417,0,0,1,0,1,0
4472,1090 Long Pond Road,Rochester,NY,14626,US,43.223855,-77.696568,1,0,1,0,1,0
4480,16804 Jamaica Ave,Jamaica,NY,11432,US,40.706215,-73.79213100000001,0,1,0,1,1,0
4484,81 East Main Street (Route 52),Walden,NY,12586,US,41.561896999999995,-74.181744,0,0,0,0,0,0
4488,36 North St,Dryden,NY,13053,US,42.493576000000004,-76.297955,0,0,0,0,1,0
4490,3742 State Route 11,McGraw,NY,13101,US,42.588134000000004,-76.13038900000001,0,0,0,0,0,0
4491,508 259th St,Bronx,NY,10471,US,40.90684,-73.904605,0,0,0,0,0,0
4493,2944 Hempstead Tpke,Levittown,NY,11756,US,40.723925,-73.526912,0,0,1,1,1,0
4496,205 S. Meadow St,Ithaca,NY,14850,US,42.438241,-76.508388,1,0,1,1,1,0
4497,10730 Memorial Dr,Fort Drum,NY,13602,US,44.04753,-75.810473,0,0,0,0,0,0
4507,3521 Country Club Rd,Endwell,NY,13760,US,42.116416,-76.019191,0,0,0,1,1,0
4511,165 Main St,Sayville,NY,11782,US,40.734798,-73.085063,0,1,0,1,1,0
4515,2275-2375 Richmond Avenue,Staten Island,NY,10314,US,40.590941,-74.16465,0,1,0,1,1,0
4517,602 Plank Rd,Clifton Park,NY,12065,US,42.862741,-73.778733,1,1,1,1,1,0
4521,2424 Broadway,New York,NY,10024,US,40.790333000000004,-73.974638,0,0,0,1,0,0
4524,4891 Transit Rd,Depew,NY,14043,US,42.876732000000004,-78.696663,0,1,1,1,1,0
4532,4560 Express Dr S,Ronkonkoma,NY,11779,US,40.811485,-73.124914,0,0,0,1,1,1
4534,505 Campbell Ave,Troy,NY,12180,US,42.707466,-73.678111,1,1,0,1,1,0
4559,6 East 46th St,New York,NY,10017,US,40.755499,-73.978356,0,0,0,1,1,0
4577,650 Moseley Rd,Fairport,NY,14450,US,43.0689,-77.441709,0,1,1,0,1,0
4587,198 Second Ave,Gloversville,NY,12078,US,43.056373,-74.324286,1,1,0,1,1,0
4591,1350 Route 110,Farmingdale,NY,11735,US,40.738395000000004,-73.423523,1,1,1,1,0,0
4596,8010 State Rd 31,Bridgeport,NY,13030,US,43.154165,-75.973895,0,0,0,0,0,0
4606,1358 Pennsylvania Ave,Brooklyn,NY,11239,US,40.647038,-73.882862,0,0,1,1,0,0
4608,159-02 Jamaica Ave,Jamaica,NY,11425,US,40.703,-73.799814,0,0,0,0,0,0
4611,21522 73rd Ave,Bayside,NY,11364,US,40.740645,-73.758423,0,0,0,1,1,0
4612,1167 Webster Ave,Bronx,NY,10456,US,40.830909999999996,-73.910552,0,0,0,0,0,0
4613,1145 Union Rd,West Seneca,NY,14224,US,42.830882,-78.753454,0,1,0,0,1,0
4615,22 W. Ramapo Rd,Garnerville,NY,10923,US,41.200336,-74.00818100000001,0,0,0,1,1,0
4616,5300 W. Genesee St,Camillus,NY,13031,US,43.04164,-76.269813,1,1,0,0,1,0
4619,2593 Route 52,Hopewell Junction,NY,12533,US,41.555078,-73.78460600000001,0,0,0,1,1,0
4620,245 Saratoga Rd,Glenville,NY,12302,US,42.868832,-73.932896,1,0,0,1,0,0
4630,4925 Van Dam St,Long Island City,NY,11101,US,40.73868,-73.93445,0,0,0,0,0,0
4631,890 New Loudon Rd,Latham,NY,12110,US,42.756331,-73.758533,1,1,1,1,1,0
4635,711 Route 211 East,Wallkill,NY,10940,US,41.466203,-74.359133,1,0,0,1,1,0
4640,662 Dogwood Ave,Franklin Square,NY,11010,US,40.689577,-73.66792,0,1,0,1,1,0
4641,474 Aviation Rd,Queensbury,NY,12804,US,43.329044,-73.687099,1,0,1,1,1,0
4642,727 Maple Rd,Amherst,NY,14221,US,42.99069,-78.760343,1,1,1,0,1,0
4645,900 Rte 376,East Fishkill,NY,12533,US,41.60731,-73.82863,0,0,0,1,1,0
4655,2795 Richmond Ave,Staten Island,NY,10314,US,40.57615,-74.1645,0,1,0,1,1,0
4662,1090 Route 52,Carmel,NY,10512,US,41.492915,-73.679335,0,0,0,0,1,0
4666,1841 Empire Blvd,Webster,NY,14580,US,43.18779,-77.506012,1,1,1,1,1,0
4667,1532 Crescent Rd,Clifton Park,NY,12065,US,42.818554,-73.771801,1,1,1,1,1,0
4677,3242 W. State St,Allegheny,NY,14706,US,42.080193,-78.477419,0,0,0,0,0,0
4678,11420 Sutphin Blvd,Jamaica,NY,11434,US,40.685681,-73.793605,0,1,0,1,1,0
4681,55 Route 6,Baldwin Place,NY,10505,US,41.342155,-73.76339,0,0,0,0,0,1
4684,152 W. 31st St,New York,NY,10001,US,40.748777000000004,-73.991592,0,0,0,1,1,0
4685,393 Little East Neck Rd,West Babylon,NY,11704,US,40.703184,-73.3431,0,0,0,1,1,1
4688,5090 Genesee St,Cheektowaga,NY,14225,US,42.937983,-78.698093,1,0,1,0,1,0
4692,355 3rd Ave,New York,NY,10010,US,40.740548,-73.981651,0,1,0,1,0,0
4693,1355 Niagara Falls Blvd,Amherst,NY,14226,US,42.9913,-78.82115,0,1,0,1,1,0
4701,995 Manor Rd,Staten Island,NY,10314,US,40.602086,-74.120459,0,1,0,1,1,0
4702,2704 Hylan Blvd,Staten Island,NY,10306,US,40.565690000000004,-74.11274,0,0,0,1,1,1
4710,3821 Lockport Rd,Sanborn,NY,14132,US,43.128229,-78.837744,0,0,0,1,0,0
4711,2044 Latta Rd,Rochester,NY,14612,US,43.253298,-77.66608199999999,0,0,0,1,0,0
4713,81 Oriskany Blvd,Whitesboro,NY,13492,US,43.118049,-75.29264599999999,0,0,0,0,1,0
4720,6250 Furnace Rd,Ontario,NY,14519,US,43.226727000000004,-77.281649,0,0,0,0,1,0
4721,1412 State Route 9,Lake George,NY,12845,US,43.363601,-73.699854,0,0,0,0,1,0
4723,Mt Belvedere Ave,Fort Drum,NY,13602,US,44.045879,-75.800702,0,0,0,0,0,0
4727,7602 13th Ave,Brooklyn,NY,11228,US,40.6197,-74.008246,0,1,0,0,1,0
4732,201 Vestal Pkwy West,Vestal,NY,13850,US,42.087521,-76.049524,1,0,1,1,1,0
4734,4155 State Route 31,Clay,NY,13041,US,43.188581,-76.224661,0,0,0,0,0,0
4736,455 Park Ave S,New York,NY,10016,US,40.744972,-73.98265400000001,0,1,0,1,1,0
4743,3045 Broadway,Schenectady,NY,12306,US,42.790098,-73.978822,0,0,0,1,1,0
4744,2340 Delaware Ave,Buffalo,NY,14216,US,42.947447,-78.869421,0,1,1,1,0,0
4751,3600 US Highway 9W,Highland,NY,12528,US,41.711778,-73.964088,0,0,0,0,0,0
4758,731 Mamaroneck Ave,Mamaroneck,NY,10543,US,40.956271,-73.738289,0,0,0,1,0,0
4762,7555 Route 32,Cairo,NY,12413,US,42.292759999999994,-73.98889,0,0,0,1,0,0
4766,2954 US Route 9,Ballston Spa,NY,12020,US,43.026859,-73.792798,0,0,0,1,0,0
4772,1482 Buffalo Rd,Westgate,NY,14624,US,43.149962,-77.690437,1,1,1,1,1,0
4784,285 Wading River Rd,Manorville,NY,11949,US,40.826609999999995,-72.809,0,0,0,0,0,0
4793,430 North Country Rd,Saint James,NY,11780,US,40.876646,-73.170383,0,0,0,0,0,0
4798,40 First St,Ilion,NY,13357,US,43.014888,-75.036749,0,0,0,0,1,0
4814,68 US Highway 9 West,Glenmont,NY,12077,US,42.621003,-73.77681700000001,1,0,0,1,0,0
4817,1000 Carmans Rd,Massapequa,NY,11758,US,40.701378000000005,-73.43255699999999,1,1,0,1,0,0
4835,451 Geyser Rd,Ballston Spa,NY,12020,US,43.045471,-73.85007399999999,0,0,0,1,0,0
4845,100-05 Queens Blvd,Forest Hills,NY,11375,US,40.727137,-73.853353,0,1,0,1,1,0
4847,7155 State Route 9,Plattsburgh,NY,12901,US,44.727633000000004,-73.435388,1,1,1,0,1,0
4849,2973 E. Tremont Ave,Bronx,NY,10461,US,40.840881,-73.839386,0,1,0,1,1,0
4850,360 Route 17M,Monroe,NY,10950,US,41.315009,-74.16614799999999,1,0,1,1,1,1
4864,840 Carman Ave,Westbury,NY,11590,US,40.747764000000004,-73.552152,1,1,1,1,1,0
4870,1311 Fairport Rd,Fairport,NY,14450,US,43.101323,-77.461862,0,1,1,0,1,0
4871,289 Hamilton Ave,Brooklyn,NY,11231,US,40.676072,-74.000637,0,0,0,1,1,0
4874,1151 State Rte 55,Lagrangeville,NY,12540,US,41.67159,-73.797124,0,0,0,0,0,0
4875,482 Tarrytown Rd,White Plains,NY,10607,US,41.043442999999996,-73.8006,0,0,0,1,0,0
4876,274 E. 149th St,Bronx,NY,10451,US,40.817397,-73.9227,0,0,1,1,0,0
4881,9520 Carousel Ctr. Dr,Syracuse,NY,13290,US,43.070972,-76.172536,0,0,0,0,0,0
4882,381 Canal St,New York,NY,10013,US,40.721498,-74.00466999999999,0,0,0,0,1,0
4885,501 Commack Rd,Deer Park,NY,11729,US,40.766355,-73.31055,0,1,0,1,0,1
4888,8118 Roosevelt Ave,Jackson Heights,NY,11372,US,40.747524,-73.88415,0,1,0,1,1,0
4892,1903 Kings Hwy,Brooklyn,NY,11229,US,40.610462,-73.954441,0,1,0,1,1,0
4893,1750 Fifth Ave,Bayshore,NY,11706,US,40.768069,-73.261616,0,0,1,1,1,0
4897,26 W. Orangeburg Rd,Orangeburg,NY,10962,US,41.045442,-73.95548199999999,0,0,0,1,0,0
4898,933 W. Ridge Rd,Rochester,NY,14615,US,43.20281,-77.65142,0,0,0,1,1,0
4904,243 3rd Ave,New York,NY,10003,US,40.736812,-73.984372,0,1,0,1,1,0
4906,3624 State Route 9,Lake George,NY,12845,US,43.487778000000006,-73.75790699999999,0,0,0,0,1,0
4908,80 N State Rd,Briarcliff Manor,NY,10510,US,41.151736,-73.830087,0,0,0,0,0,0
4909,2264 Frederick Douglas Blvd,New York,NY,10027,US,40.807811,-73.95264,0,0,0,1,1,0
4910,715 Upper Court St,Binghamton,NY,13904,US,42.102261999999996,-75.84480500000001,0,0,0,1,0,0
4917,598 Main St,Buffalo,NY,14202,US,42.890209000000006,-78.873211,0,1,0,1,1,0
4919,506 Union Blvd,West Islip,NY,11795,US,40.709072,-73.29786,0,0,0,1,1,0
4920,638 Lexington Ave,New York,NY,10022,US,40.759178000000006,-73.970529,0,1,0,1,0,0
4929,8704 Fourth Ave,Brooklyn,NY,11209,US,40.621854,-74.02887199999999,0,1,0,0,1,0
4931,210 W. 50th St,New York,NY,10019,US,40.761426,-73.984225,0,1,0,1,1,0
4932,1243 Surf Ave,Brooklyn,NY,11224,US,40.575855,-73.981052,0,1,0,1,1,0
4933,243 9th Ave,New York,NY,10001,US,40.74773,-74.00045899999999,0,0,0,1,1,0
4936,545 Uniondale Ave,Uniondale,NY,11553,US,40.701623,-73.59291,1,0,0,0,0,0
4940,3152 Chili Ave,Rochester,NY,14624,US,43.108458,-77.744625,1,1,1,1,1,0
4946,195 Pine Aire Dr,Bayshore,NY,11706,US,40.772531,-73.278554,0,0,1,1,1,0
4963,2568 Broadway,New York,NY,10025,US,40.794971999999994,-73.97130200000001,0,1,0,1,1,0
4964,265 W 37th St,New York,NY,10018,US,40.754138,-73.99184,0,0,0,0,0,0
4965,370 Lexington Ave,New York,NY,10017,US,40.750636,-73.976837,0,0,0,1,1,0
4975,3929 Vineyard Dr,Dunkirk,NY,14048,US,42.459237,-79.316037,0,1,0,1,1,0
4984,427 E Boston Post Rd,Mamaroneck,NY,10543,US,40.950249,-73.729823,0,0,0,1,0,0
4990,10 Depot Pl,Scarsdale,NY,10583,US,40.98908,-73.80884499999999,0,0,0,1,0,0
5000,515 Stewart Ave,Bethpage,NY,11714,US,40.743001,-73.482179,0,1,0,1,1,0
5002,501 W 167th St,New York,NY,10032,US,40.839419,-73.93744000000001,0,0,0,0,1,0
5008,300 E. Main St,East Islip,NY,11730,US,40.734156,-73.17657,0,0,0,1,1,1
5011,152 Clinton Ave,Cortland,NY,13045,US,42.606891,-76.167926,1,1,0,1,1,0
5018,2605 Francis Lewis Blvd,Bayside,NY,11361,US,40.772971999999996,-73.794905,0,0,0,1,1,0
5022,15943 Sate Route 22,Stephentown,NY,12168,US,42.546929,-73.368436,0,0,0,0,0,0
5026,3059 Webster Ave,Bronx,NY,10467,US,40.870315999999995,-73.878817,0,1,0,1,1,0
5027,20 Broadway,Massapequa,NY,11758,US,40.677619,-73.470007,1,1,0,1,0,0
5028,2419 Coney Island Ave,Brooklyn,NY,11223,US,40.597873,-73.960959,0,1,0,0,1,0
5031,6627 Bay Pkwy,Brooklyn,NY,11204,US,40.612835,-73.982174,0,1,0,1,1,0
5037,2470 State Highway 30,Mayfield,NY,12117,US,43.11081,-74.26731,0,0,0,0,0,0
5045,2501 Corning Rd,Elmira Heights,NY,14903,US,42.150804,-76.834626,0,0,1,0,0,0
5055,838 New York Avenue,Huntington,NY,11743,US,40.859499,-73.417868,0,0,0,1,1,0
5056,1930 Ralph Ave,Brooklyn,NY,11234,US,40.630492,-73.919092,0,1,0,1,1,0
5057,7910 Springfield Blvd,Oakland Gardens,NY,11364,US,40.736131,-73.747161,0,0,0,1,1,0
5059,137 Wildey St,Tarrytown,NY,10591,US,41.079909,-73.863745,0,1,0,1,0,0
5060,6366 108th St,Forest Hills,NY,11375,US,40.734256,-73.847691,0,1,0,1,1,0
5066,1297 Route 332,Farmington,NY,14425,US,42.973095,-77.353651,0,0,0,1,0,0
5067,1041 Hicksville Rd,Seaford,NY,11783,US,40.699471,-73.48165999999999,0,0,0,1,0,0
5077,425 Central Park Ave,White Plains,NY,10606,US,41.031304,-73.78730999999999,0,0,0,0,0,0
5078,85 North Ave,New Rochelle,NY,10801,US,40.905875,-73.776954,0,1,0,1,1,1
5093,4005 Vestal Pkwy,Vestal,NY,13850,US,42.096246,-75.97711899999999,1,0,1,1,1,0
5100,311 S. Franklin St,Watkins Glen,NY,14891,US,42.373362,-76.869935,1,0,0,1,0,0
5105,1200 Brooks Ave,Rochester,NY,14624,US,43.12784,-77.66418,1,1,1,1,1,0
5110,1365 New Scotland Rd,Slingerlands,NY,12159,US,42.638783000000004,-73.857463,0,0,0,0,0,0
5111,135 W. Campbell Rd,Rotterdam,NY,12306,US,42.812597,-73.98218,0,0,0,1,1,0
5112,1781 Richmond Rd,Staten Island,NY,10306,US,40.586975,-74.104355,0,0,0,1,1,1
5114,980 E. 233rd St,Bronx,NY,10466,US,40.890493,-73.84908100000001,0,0,0,0,1,0
5117,3276 Jerome Ave,Bronx,NY,10468,US,40.878347999999995,-73.885991,0,0,0,0,1,0
5121,3068 E. Henrietta Rd,Henrietta,NY,14467,US,43.059652,-77.611542,0,1,0,0,1,0
5122,1880 3rd Ave,New York,NY,10029,US,40.790185,-73.94591700000001,0,0,0,1,1,0
5125,3497 Hempstead Tpke,Levittown,NY,11756,US,40.725851,-73.506711,0,0,1,1,1,0
5143,10227 Roosevelt Ave,Corona,NY,11368,US,40.749990999999994,-73.862858,0,1,0,0,1,0
5152,1730 Cross Bronx Expressway,Bronx,NY,10472,US,40.835668,-73.870007,0,1,0,0,1,0
5153,4147 Throggs Neck Expy,Bronx,NY,10465,US,40.819966,-73.809993,0,0,0,1,1,0
5155,34 Hempstead Tpke,Farmingdale,NY,11735,US,40.729863,-73.46163299999999,1,1,1,1,0,0
5159,1053 Little Britain Rd,New Windsor,NY,12553,US,41.485397999999996,-74.09480400000001,0,0,0,0,1,0
5160,2350 Jerome Ave,Bronx,NY,10458,US,40.860172,-73.902564,0,1,0,0,1,0
5161,680 St. Nicholas Ave,New York,NY,10030,US,40.823819,-73.944694,0,0,0,0,0,0
5172,2580 Route 302,Middletown,NY,10941,US,41.4941,-74.40363,0,0,1,0,1,0
5173,5697 State Highway 12,Norwich,NY,13815,US,42.516856,-75.522581,1,0,0,0,1,0
5187,2560 Youngstown Lockport Rd,Ransomville,NY,14131,US,43.238053,-78.908925,0,0,0,0,1,0
5202,20823 NYS Route 3,Watertown,NY,13601,US,43.97637,-75.95851,1,1,1,0,1,0
5204,306 Nassau Rd,Roosevelt,NY,11575,US,40.680448,-73.590389,0,0,0,0,0,0
5208,678 Central Park Ave,Yonkers,NY,10710,US,40.92419,-73.858459,0,0,0,1,1,0
5211,3649 Erie Blvd E.,Dewitt,NY,13214,US,43.04085,-76.06617,0,0,0,0,1,0
5222,5073 Camp Rd,Hamburg,NY,14075,US,42.749602,-78.853702,1,0,0,1,1,0
5231,407 Ave P,Brooklyn,NY,11223,US,40.609056,-73.972424,0,1,0,0,1,0
5232,100 Maiden Ln,New York,NY,10038,US,40.706854,-74.007154,0,0,0,1,1,0
5234,3309 Sunrise Hwy,Islip Terrace,NY,11752,US,40.747652,-73.172372,0,0,0,1,0,0
5235,1105 Horseblock Rd,Farmingville,NY,11738,US,40.829485,-73.012823,0,0,0,1,1,1
5237,606 10th Avenue,New York,NY,10036,US,40.760748,-73.994534,0,1,0,1,0,0
5238,31 Franklin Ave,Hewlett,NY,11557,US,40.637245,-73.703882,0,0,0,1,0,0
5240,666 5th Ave,New York,NY,10103,US,40.760791,-73.976189,0,0,0,0,0,0
5245,1972 3rd Ave,New York,NY,10029,US,40.793215000000004,-73.943662,0,0,0,1,1,0
5251,432 Beach 129th St,Belle Harbor,NY,11694,US,40.578876,-73.84947700000001,0,0,0,0,1,0
5254,1720 Atlantic Ave,Brooklyn,NY,11213,US,40.677144,-73.933762,0,0,0,0,1,0
5255,2965 Veterans Rd W,Staten Island,NY,10309,US,40.527786,-74.234059,0,0,1,1,0,0
5259,34 Utica St,Hamilton,NY,13346,US,42.827696,-75.546122,0,0,0,0,0,0
5260,9221 River Rd,Marcy,NY,13403,US,43.138699,-75.27634499999999,0,0,0,0,0,0
5264,849 Second Ave,Lansingburg,NY,12182,US,42.785092,-73.673028,0,0,0,1,1,0
5268,3421 E. Tremont Ave,Bronx,NY,10465,US,40.832947,-73.828016,0,0,0,1,1,0
5276,1791 Westchester Ave,Bronx,NY,10472,US,40.831871,-73.866877,0,1,0,0,1,0
5278,973 8th Ave,New York,NY,10019,US,40.766909000000005,-73.98285,0,1,0,1,1,0
5286,209 W. 231st St,Bronx,NY,10463,US,40.879321999999995,-73.905322,0,1,1,1,1,0
5287,1526 Newbridge Rd,Bellmore,NY,11710,US,40.683783,-73.540633,0,1,0,1,1,1
5288,245-01 Francis Lewis Blvd,Rosedale,NY,11422,US,40.664888,-73.734909,0,0,0,0,1,0
5293,135-04 Jamaica Ave,Richmond Hill,NY,11428,US,40.702329999999996,-73.817546,0,0,0,0,0,0
5294,2400 Westchester Ave,Bronx,NY,10461,US,40.836825,-73.846406,0,1,0,1,1,0
5295,2515 Boston Road,Bronx,NY,10467,US,40.863671999999994,-73.865075,0,1,0,1,1,0
5297,1090 Morris Park,Bronx,NY,10462,US,40.849228000000004,-73.853475,0,1,0,1,1,0
5303,1080 McDonald Ave,Brooklyn,NY,11230,US,40.626647999999996,-73.976597,0,1,0,0,1,0
5322,730 Columbus Ave,New York,NY,10025,US,40.792396000000004,-73.96808,0,1,0,1,1,0
5335,2 Washington Ave,Pleasantville,NY,10570,US,41.13537,-73.792012,0,0,0,0,0,0
5344,48 West Church St,Adams,NY,13605,US,43.810138,-76.031201,0,0,0,0,0,0
5346,668 3rd Ave,Brooklyn,NY,11232,US,40.664557,-73.997753,0,0,0,0,1,0
5359,1873 2nd Ave,New York,NY,10029,US,40.784679,-73.94696,0,0,0,1,1,0
5365,516 Walt Whitman Rd,Melville,NY,11747,US,40.811565,-73.409283,0,0,0,0,0,0
5368,712 E. 233rd St,Bronx,NY,10466,US,40.893113,-73.856975,0,0,0,0,1,0
5374,2930 N Main Street Ext,Jamestown,NY,14701,US,42.125246000000004,-79.23992700000001,0,1,0,1,1,0
5381,350 W Morris St,Bath,NY,14810,US,42.339560999999996,-77.334074,0,1,0,0,1,0
5397,2514 Broadway,Astoria,NY,11106,US,40.763088,-73.92798499999999,0,1,0,0,1,0
5398,1133 Mohawk St,Utica,NY,13501,US,43.090325,-75.221864,0,0,0,0,1,0
5410,688 Freedom Plains Rd,Poughkeepsie,NY,12603,US,41.670091,-73.841099,0,1,0,1,1,1
5413,816-818 Dutchess Tpke,Poughkeepsie,NY,12603,US,41.702098,-73.871235,0,1,0,1,1,1
5420,3402 Union St,Flushing,NY,11354,US,40.766791999999995,-73.827575,0,0,0,0,1,0
5421,687 Amsterdam Ave,New York,NY,10025,US,40.792334000000004,-73.971434,0,1,0,1,1,0
5422,2661 Broadway,New York,NY,10025,US,40.798103999999995,-73.96956,0,1,0,1,1,0
5424,141 Washington Ave Ext,Albany,NY,12205,US,42.69474,-73.84767,1,1,1,1,1,0
5453,1 Homewood Ave,Newburgh,NY,12550,US,41.519233,-74.107887,1,1,1,0,1,1
5455,9637 Queens Blvd,Rego Park,NY,11374,US,40.730102,-73.861386,0,0,0,1,1,0
5456,6166 Jericho Tpke,Commack,NY,11725,US,40.84203,-73.301651,1,1,1,1,1,0
5467,1300 Hylan Blvd,Staten Island,NY,10305,US,40.59689,-74.085234,0,1,0,1,1,0
5472,43 New Scotland Ave,Albany,NY,12208,US,42.653245,-73.773999,0,1,0,1,1,0
5479,4882 State Highway 30,Amsterdam,NY,12010,US,42.968626,-74.186589,1,1,1,0,1,0
5480,1041 Route 22,Brewster,NY,10509,US,41.396021000000005,-73.596528,0,0,0,0,1,0
5486,500 Terminal Drive,Jamaica,NY,11430,US,40.648044,-73.780085,0,0,0,0,0,0
5487,JFK Int'l Terminal 5 7NC,Jamaica,NY,11430,US,40.647542,-73.778964,0,0,0,0,0,0
5488,500 Terminal Dr,Jamaica,NY,11430,US,40.643390999999994,-73.779359,0,0,0,0,0,0
5489,JFK Int'l Terminal 5 FC,Jamaica,NY,11430,US,40.643392,-73.77936,0,0,0,0,0,0
5490,JFK Int'l Terminal 5  51LL,Jamaica,NY,11430,US,40.647039,-73.778634,0,0,0,0,0,0
5491,JFK Int'l Terminal 5  2T,Jamaica,NY,11430,US,40.646637,-73.778634,0,0,0,0,0,0
5493,5165 Main St,Williamsville,NY,14221,US,42.960069,-78.75963399999999,1,1,1,0,1,0
5494,23436 Merrick Blvd,Rosedale,NY,11422,US,40.673846999999995,-73.735331,0,0,0,0,1,0
5502,2103 Frederick Douglass Blvd.,New York,NY,10026,US,40.802896999999994,-73.956666,0,0,0,1,1,0
5515,333 Jericho Tpke,Syosset,NY,11791,US,40.81062,-73.50373499999999,0,0,0,1,1,0
5522,32 Peruville Rd,Lansing,NY,14882,US,42.538977,-76.491988,0,0,0,0,0,0
5558,3378 Main St,Mexico,NY,13114,US,43.460390999999994,-76.238763,0,0,0,0,0,0
5568,80A Horseblock Rd,West Yaphank,NY,11980,US,40.809713,-72.948976,0,0,0,0,0,0
5569,781 State Rt 7,Sanitaria Springs,NY,13833,US,42.161840000000005,-75.77045,0,0,0,0,0,0
5570,2 West St,Walton,NY,13856,US,42.170142,-75.13721600000001,0,0,0,1,0,0
5571,42598 State Hwy 28,Margaretville,NY,12455,US,42.14593,-74.63316999999999,0,0,0,1,0,0
5575,156 Manetto Hill Rd,Plainview,NY,11803,US,40.783194,-73.47349799999999,0,0,0,1,1,0
5577,234 Thompson St,New York,NY,10012,US,40.729504,-73.998434,0,0,0,1,1,0
5578,1863 Route 6,Carmel,NY,10512,US,41.414859,-73.670681,0,0,0,0,1,0
5587,64 Fulton St,New York,NY,10038,US,40.708727,-74.005239,0,0,0,1,1,0
5588,125 Lafayette St,New York,NY,10013,US,40.718765000000005,-74.00000899999999,0,0,0,0,1,0
5611,433 Riverdale Ave,Yonkers,NY,10705,US,40.917559000000004,-73.901848,0,0,0,0,1,0
5612,173 Windsor Hwy,New Windsor,NY,12553,US,41.477562,-74.042079,0,0,0,0,1,0
5613,140 E. 34th St,New York,NY,10016,US,40.746097999999996,-73.97934000000001,0,1,0,1,1,0
5634,415 Route 9W,Glenmont,NY,12077,US,42.601778,-73.792539,1,0,0,1,0,0
5639,355 E. 86th St,New York,NY,10028,US,40.777112,-73.949943,0,1,0,1,0,0
5640,520 East 14th St,New York,NY,10009,US,40.729796,-73.97936899999999,0,1,0,0,1,0
5641,24501 Jamaica Ave.,Bellerose,NY,11426,US,40.724964,-73.72284,0,0,0,1,0,0
5694,2014 Route 5 and 20,Seneca Falls,NY,13148,US,42.902941999999996,-76.833611,0,0,0,0,0,0
5723,1443 York Ave,New York,NY,10075,US,40.769978,-73.95174,0,0,0,0,1,0
5728,3151 Lawson Blvd,Oceanside,NY,11572,US,40.63426,-73.653751,0,1,0,1,1,0
5729,4261 Austin Blvd,Island Park,NY,11558,US,40.60543,-73.649378,0,0,0,0,0,0
5786,356 McGuinness Blvd,Brooklyn,NY,11222,US,40.73478,-73.95223299999999,0,0,0,0,1,0
5787,4926 Avenue K,Brooklyn,NY,11234,US,40.625671000000004,-73.92782,0,1,0,1,1,0
5791,380 Columbia Tpke,Clinton Heights,NY,12144,US,42.60982,-73.72576600000001,1,0,1,0,1,0
5792,601 Saratoga St,Cohoes,NY,12047,US,42.754484999999995,-73.70043299999999,0,0,0,1,1,0
5793,365 Fairview Ave,Hudson,NY,12534,US,42.272824,-73.760065,1,1,0,1,1,0
5794,6 Green St,Hudson,NY,12534,US,42.247521,-73.780991,1,1,0,1,1,0
5795,411 Reynolds Rd,Fort Edward,NY,12828,US,43.252022,-73.66759,0,0,0,0,0,0
5796,66-70 Main St,South Glens Falls,NY,12803,US,43.302109,-73.638064,0,0,0,0,1,0
5797,527 Aviation Rd,Queensbury,NY,12804,US,43.330201,-73.681064,1,0,1,1,1,0
5798,758 Erie Blvd W,Syracuse,NY,13204,US,43.048508,-76.170307,0,0,0,0,1,0
5799,400 Erie Blvd E,Syracuse,NY,13202,US,43.050554,-76.147006,0,0,0,0,1,0
5800,6020 S Salina St,Syracuse,NY,13205,US,42.983246,-76.143422,0,0,0,0,1,0
5801,288 N. Main St,Spring Valley,NY,10977,US,41.126265999999994,-74.041088,0,0,1,1,0,0
5821,222 Jefferson Rd,Brighton,NY,14623,US,43.093222,-77.657332,1,0,1,1,1,0
5822,1677 Elmwood Ave,Brighton,NY,14620,US,43.125549,-77.592244,0,1,0,1,0,0
5823,459 Spencerport Rd,Gates,NY,14606,US,43.16953,-77.70196800000001,0,1,0,1,1,0
5829,3000 S Winton Rd,Brighton,NY,14623,US,43.095845000000004,-77.581908,1,0,1,1,1,0
5851,61 Glenwood Ave,Binghamton,NY,13905,US,42.11179,-75.938859,0,0,0,1,0,0
5852,236 Conklin Ave,Binghamton,NY,13903,US,42.095034000000005,-75.894062,0,1,0,1,1,0
5853,1698 Rt 9,Clifton Park,NY,12065,US,42.863068,-73.768748,1,1,1,1,1,0
5854,1723 State Rte 7,Cobleskill,NY,12043,US,42.66833,-74.50344,1,0,0,0,1,0
5855,100 Commerce Drive,Clifton Park,NY,12065,US,42.903864,-73.784152,1,1,1,1,1,0
5856,7409 Pittsford Palmyra Rd,Fairport,NY,14450,US,43.064382,-77.409521,0,1,1,0,1,0
5857,719 Elmgrove Rd,Gates,NY,14606,US,43.164949,-77.732524,0,1,0,1,1,0
5858,4900 W Henrietta Rd,Henrietta,NY,14467,US,43.054117,-77.65438,0,1,0,0,1,0
5859,6157 State Hwy 12,Norwich,NY,13815,US,42.550931,-75.526465,1,0,0,0,1,0
5860,4967 State Hwy 23,Oneonta,NY,13820,US,42.448101,-75.049852,1,1,0,0,1,0
5861,3860 Ridge Rd W,Rochester,NY,14626,US,43.214643,-77.732022,1,0,1,0,1,0
5862,685 Hiawatha Blvd West,Syracuse,NY,13204,US,43.062055,-76.175809,0,0,0,0,1,0
5872,3936 10th Ave (BP),New York,NY,10034,US,40.866281,-73.91826999999999,0,0,0,0,1,0
5874,13430 Atlantic Ave,Jamaica,NY,11419,US,40.696915000000004,-73.814177,0,0,0,0,1,0
5875,1 E. 233rd St,Bronx,NY,10470,US,40.895825,-73.876508,0,0,0,0,0,0
5876,350-370 Grand Concourse,Bronx,NY,10451,US,40.815957,-73.92804100000001,0,0,1,1,0,0
5877,1049 Grand St,Brooklyn,NY,11211,US,40.713817999999996,-73.93350500000001,0,1,0,0,0,0
5878,466 10th Ave,New York,NY,10018,US,40.756217,-73.99770500000001,0,0,0,0,0,0
5879,4353 Broadway,New York,NY,10033,US,40.853595,-73.93442900000001,0,0,0,0,1,0
5920,1320 E. River Rd,Bainbridge,NY,13733,US,42.29084,-75.473793,0,0,0,0,0,0
5930,525 Lenox Ave,New York,NY,10037,US,40.815048,-73.940439,0,0,0,0,0,0
5932,2939 Saunders Settlement Rd,Sanborn,NY,14132,US,43.143336,-78.885311,0,0,0,1,0,0
5975,281 Bruckner Blvd,Bronx,NY,10454,US,40.805335,-73.911146,0,0,0,0,1,0
6039,491 Route 299,Highland,NY,12528,US,41.738125,-74.015751,0,0,0,0,0,0
6040,36 Indian Head Road,Kings Park,NY,11754,US,40.883046,-73.25349200000001,0,0,0,0,1,0
6041,416 Route 28,Kingston,NY,12401,US,41.960611,-74.056924,1,1,1,1,1,0
6042,841 Ulster Ave,Kingston,NY,12401,US,41.958421,-73.990576,1,1,1,1,1,0
6044,274 E Montauk Hwy,Lindenhurst,NY,11757,US,40.683077000000004,-73.355527,0,0,0,1,1,0
6047,501 Route 112,Port Jefferson Station,NY,11776,US,40.926709,-73.04861899999999,0,0,0,1,1,0
6048,399 Route 212,Saugerties,NY,12477,US,42.08296,-73.97592,0,0,0,1,1,0
6052,1138 Montauk Hwy,Water Mill,NY,11976,US,40.919694,-72.342965,0,0,0,0,0,0
6099,810 W. Broadway,Fulton,NY,13069,US,43.319759999999995,-76.436702,1,0,0,0,1,0
6103,19605 Grand Central Pkwy,Fresh Meadows,NY,11423,US,40.725086,-73.771579,0,0,0,0,0,0
6105,83-10 Astoria Blvd,East Elmhurst,NY,11370,US,40.764509999999994,-73.885889,0,0,0,0,1,0
6106,4159 Kissena Blvd,Flushing,NY,11355,US,40.757628000000004,-73.827427,0,1,0,0,0,0
6107,767 South Columbus Ave.,Mount Vernon,NY,10551,US,40.894042,-73.824088,0,0,0,0,0,0
6111,82-09 153rd Ave,Howard Beach,NY,11414,US,40.666546000000004,-73.852018,0,0,0,1,1,0
6112,53345 Route 25,Southold,NY,11971,US,41.063675,-72.429948,0,0,0,0,0,0
6113,535 Amsterdam Ave,New York,NY,10024,US,40.787652,-73.97500600000001,0,0,0,1,0,0
6115,7073 Route 281,Preble,NY,13141,US,42.747664,-76.135235,0,0,0,0,0,0
6116,693 9th Ave,New York,NY,10036,US,40.762017,-73.990144,0,1,0,1,0,0
6117,2801 Knapp St,Brooklyn,NY,11235,US,40.586275,-73.931071,0,1,0,1,1,1
6123,1001 Central Park Ave,Yonkers,NY,10704,US,40.936316,-73.856703,0,1,0,1,0,1
6126,3723 Ditmars Blvd,Astoria,NY,11105,US,40.773567,-73.906751,0,0,0,1,1,0
6129,19 Rector St,New York,NY,10006,US,40.708096000000005,-74.014151,0,0,0,0,0,0
6131,5708 Clarendon Road,Brooklyn,NY,11203,US,40.644560999999996,-73.922536,0,1,0,0,1,0
6137,13415 Cross Bay Blvd,Ozone Park,NY,11417,US,40.674416,-73.842658,0,0,0,1,1,0
6144,8924 Third Ave,Brooklyn,NY,11209,US,40.620819,-74.0323,0,1,0,0,1,0
6146,721 Flatbush Ave,Brooklyn,NY,11226,US,40.655372,-73.959681,0,1,0,1,1,0
6150,20 N Salem Rd,Cross River,NY,10518,US,41.269079,-73.606309,0,0,0,0,0,0
6151,1000 Palisades Center Dr,West Nyack,NY,10994,US,41.099123999999996,-73.951509,0,0,1,0,1,0
6153,1946 Jericho Tpke,East Northport,NY,11731,US,40.837644,-73.33114499999999,0,1,0,1,1,0
6165,35 Vassar Rd,Poughkeepsie,NY,12603,US,41.652639,-73.874868,0,1,0,1,1,1
6166,6346 Route 25A,Wading River,NY,11792,US,40.943833000000005,-72.84711,0,1,0,1,0,0
6167,542 Eastern Pkwy,Brooklyn,NY,11225,US,40.669397,-73.950461,0,0,0,1,1,0
6172,3530 36th St,Long Island City,NY,11106,US,40.7555,-73.92523299999999,0,1,0,0,1,0
6173,2 Cortlandt St,New York,NY,10007,US,40.709934999999994,-74.01016800000001,0,0,0,0,0,0
6175,1610 Bushwick Ave,Brooklyn,NY,11207,US,40.680468,-73.903361,0,0,0,0,1,0
6180,5264 Willow Place,Verona,NY,13478,US,43.11654,-75.59662,0,0,0,0,0,0
6192,737 Albany Shaker Rd (ALB),Albany,NY,12211,US,42.745490000000004,-73.80923,0,0,0,0,1,0
6199,690 Pittsford Victor Rd,Pittsford,NY,14534,US,43.060951,-77.475484,0,0,0,0,1,0
6207,12301 Roosevelt Ave,Flushing,NY,11368,US,40.755347,-73.84320699999999,0,1,0,0,1,0
6210,57 North Main Street,Pittsford,NY,14534,US,43.094537,-77.51423299999999,0,0,0,0,1,0
6213,1 E 161st St,Bronx,NY,10451,US,40.82652,-73.92826,0,0,1,1,0,0
6219,4932 Rte 17M,New Hampton,NY,10958,US,41.408658,-74.411139,0,0,0,0,0,0
6235,681 E Main St,Mount Kisco,NY,10549,US,41.189226,-73.731791,0,0,1,1,1,0
6237,33 E Lincoln Ave,Pelham,NY,10803,US,40.916270000000004,-73.81088000000001,0,0,0,1,0,0
6240,101 E 16th St,New York,NY,10003,US,40.736165,-73.98905699999999,0,1,0,1,1,0
6241,3369 Broadway,New York,NY,10031,US,40.821148,-73.95466400000001,0,0,0,0,1,0
6251,32-48 Steinway St,Astoria,NY,11103,US,40.757801,-73.920015,0,0,0,0,1,0
6266,467 Old Country Rd,Westbury,NY,11590,US,40.746612,-73.59660699999999,1,1,1,1,1,0
6276,9403 Corona Ave,Elmhurst,NY,11373,US,40.741989000000004,-73.867063,0,1,1,0,0,1
6297,4201 Webster Ave,Bronx,NY,10470,US,40.896012,-73.863602,0,0,0,0,0,0
6301,88-01 Queens Blvd,Elmhurst,NY,11373,US,40.73537,-73.874865,0,1,1,0,0,1
6308,809 Grand St,Brooklyn,NY,11211,US,40.712103000000006,-73.941125,0,1,0,0,0,0
6310,6000 Shore Pkwy,Brooklyn,NY,11236,US,40.592321000000005,-73.908128,0,1,0,1,1,0
6312,995 Transit Way,Brockport,NY,14420,US,43.19768,-77.93214,1,0,0,0,1,0
6314,6 Ocean Ave,Lynbrook,NY,11563,US,40.667010999999995,-73.660822,0,0,0,0,1,0
6316,101 W 23rd St,New York,NY,10011,US,40.743204,-73.993127,0,0,0,1,1,0
6333,20 County Rd 39,Southampton,NY,11968,US,40.896212,-72.399125,0,0,0,1,1,0
6338,1020 Center St,Horseheads,NY,14845,US,42.156796,-76.82223499999999,1,0,0,0,1,0
6343,135 Albany Street,Cazenovia,NY,13035,US,42.929932,-75.84897099999999,0,0,0,0,1,0
6353,20 Vanderbilt Pkwy,Commack,NY,11725,US,40.815977000000004,-73.292276,1,1,1,1,1,0
6362,2412 Steinway St,Astoria,NY,11103,US,40.762613,-73.915856,0,0,0,0,1,0
6368,1135 Salt Springs Rd,Syracuse,NY,13224,US,43.047771000000004,-76.094823,0,0,0,0,1,0
6369,694 Motor Pkwy,Hauppauge,NY,11788,US,40.807333,-73.23848199999999,0,0,0,0,1,0
6370,33 Montauk Hwy,Blue Point,NY,11715,US,40.752796999999994,-73.04006,0,0,0,0,0,0
6372,1148 Wantagh Ave,Wantagh,NY,11793,US,40.694775,-73.507853,0,0,0,1,1,0
6380,4199 Broadway,New York,NY,10033,US,40.848378000000004,-73.937701,0,0,0,0,1,0
6385,1085 Route 25A,Stony Brook,NY,11790,US,40.920572,-73.129064,0,0,0,0,0,0
6386,316 W 34th St,New York,NY,10001,US,40.7527,-73.99507,0,0,0,1,1,0
6400,155 W Sunrise Hwy,Lindenhurst,NY,11757,US,40.695171,-73.391212,0,0,0,1,1,0
6403,1038 State Route 11,Champlain,NY,12919,US,44.981336999999996,-73.459166,0,0,0,0,1,0
6417,5865 State Route 31,Cicero,NY,13039,US,43.176072999999995,-76.11385899999999,1,1,1,0,1,0
6419,2960 Buffalo Rd,Rochester,NY,14624,US,43.144084,-77.732826,1,1,1,1,1,0
6425,3 Spaulding Ave,Malone,NY,12953,US,44.849662,-74.284951,1,1,0,0,0,0
6426,240 Airport Rd,White Plains,NY,10604,US,41.068576,-73.70424200000001,0,1,0,0,0,0
6427,5017 West Ridge Rd,Spencerport,NY,14559,US,43.218033,-77.790775,0,0,0,0,1,0
6437,6809 Queens Blvd,Woodside,NY,11377,US,40.74069,-73.89602,0,0,0,1,1,0
6440,346 Montauk Hwy,Wainscott,NY,11975,US,40.950762,-72.238056,0,0,0,0,0,0
6447,2024 Grand Island Blvd,Grand Island,NY,14072,US,43.01665,-78.95883,0,1,0,0,1,0
6453,1379 Halsey St,Brooklyn,NY,11237,US,40.69597,-73.905415,0,0,0,0,1,0
6454,322 Livingston St,Brooklyn,NY,11217,US,40.688026,-73.98188499999999,0,1,1,0,0,0
6472,JFK Int'l Airport (JFK),Jamaica,NY,11430,US,40.648021,-73.786276,0,0,0,0,0,0
6479,70 Major Deegan Expy,Bronx,NY,10471,US,40.8952,-73.88157,0,0,0,0,0,0
6480,71 Major Deegan Expressway,Bronx,NY,10471,US,40.89495,-73.88264000000001,0,0,0,0,0,0
6482,4 S Broad St,Carthage,NY,13619,US,43.966445,-75.622766,0,0,0,0,1,0
6484,649 N Salina St,Syracuse,NY,13208,US,43.060481,-76.153164,0,0,0,0,1,0
6485,1600 Hillside Ave,New Hyde Park,NY,11040,US,40.748481,-73.684095,0,1,0,1,1,0
6495,3979 Albany Post Rd,Hyde Park,NY,12538,US,41.762737,-73.930696,0,0,0,1,1,0
6502,2317 Ralph Ave,Brooklyn,NY,11234,US,40.621359999999996,-73.91703000000001,0,1,0,1,1,0
6515,2299 Culver Rd,Rochester,NY,14609,US,43.188355,-77.561212,0,0,0,1,1,0
6522,764 Manor Rd,Staten Island,NY,10314,US,40.60895,-74.121554,0,1,0,1,1,0
6547,17725 Rockaway Blvd,Jamaica,NY,11434,US,40.65705,-73.76856,0,1,0,1,1,0
6566,8471 Seneca Tpke,New Hartford,NY,13413,US,43.081829,-75.321955,1,1,1,0,1,0
6580,8925 Avenue D,Brooklyn,NY,11236,US,40.645457,-73.912784,0,1,0,1,1,0
6581,764 Sunrise Hwy,Baldwin,NY,11510,US,40.655951,-73.60781899999999,0,1,0,1,0,0
6588,2519 Queens Plz No,Long Island City,NY,11101,US,40.750853,-73.939741,0,0,0,0,0,0
6591,1506 Cortelyou Rd,Brooklyn,NY,11226,US,40.64138,-73.96445,0,1,0,1,1,0
6595,269 S Central Ave,Hartsdale,NY,10530,US,41.012256,-73.8067,0,0,0,1,1,0
6597,100 Main St,White Plains,NY,10601,US,41.031631,-73.771061,1,0,1,1,0,1
6598,557 Columbia Tpke,East Greenbush,NY,12061,US,42.6042,-73.71573000000001,0,0,0,1,1,0
6600,400 Velasko Rd,Syracuse,NY,13219,US,43.033394,-76.187502,0,0,1,0,1,0
6606,6438 Basile Rowe,East Syracuse,NY,13057,US,43.061197,-76.060022,1,0,0,0,1,0
6613,566 Middle Neck Rd,Great Neck,NY,11023,US,40.801739000000005,-73.735799,0,0,0,1,0,0
6616,2501 Avenue U,Brooklyn,NY,11229,US,40.60007,-73.9467,0,1,0,1,1,0
6617,625 Atlantic Ave,Brooklyn,NY,11217,US,40.68365,-73.97542,0,1,1,0,0,0
6623,1805 Webster Ave,Bronx,NY,10457,US,40.845856,-73.902075,0,0,0,0,1,0
6626,265 E Main St,Avon,NY,14414,US,42.909809,-77.734261,0,0,0,1,0,0
6627,325 Route 146,Halfmoon,NY,12065,US,42.866993,-73.73184599999999,1,1,1,1,1,0
6634,4912 Fort Hamilton Pkwy,Brooklyn,NY,11219,US,40.63848,-73.99768,0,0,0,1,1,0
6641,296 McLean Ave,Yonkers,NY,10705,US,40.910478000000005,-73.889385,0,0,0,0,1,0
6644,2109 Broadhollow Rd,Farmingdale,NY,11735,US,40.750178999999996,-73.421922,1,1,1,1,0,0
6646,2380 Route 52,Pine Bush,NY,12566,US,41.604169,-74.29434,0,0,0,0,1,0
6650,411 E 70th St,New York,NY,10021,US,40.76614,-73.95608,0,1,0,1,0,0
6663,8285 Jericho Tpke,Woodbury,NY,11797,US,40.816506,-73.465813,0,0,0,0,0,1
6671,406 6th Ave,New York,NY,10011,US,40.733726000000004,-73.999289,0,0,0,1,1,0
6672,8035 State Route 12,Barneveld,NY,13304,US,43.247733000000004,-75.18418199999999,0,0,0,0,1,0
6673,705 Old Country Rd,Westbury,NY,11590,US,40.751142,-73.57116500000001,1,1,1,1,1,0
6675,120 Baldwin St,Johnson City,NY,13790,US,42.112217,-75.95783399999999,0,1,0,1,0,0
6677,1248 Lexington Ave,New York,NY,10028,US,40.77856,-73.95636999999999,0,1,0,1,0,0
6680,601 E Fordham Rd,Bronx,NY,10458,US,40.858481,-73.88508399999999,0,1,0,0,1,0
6691,149 Canal St,New York,NY,10002,US,40.716408,-73.995593,0,0,0,1,1,0
6705,1510 86th St,Brooklyn,NY,11228,US,40.611139,-74.009325,0,1,0,0,1,0
6714,460 County Road 111,Manorville,NY,11949,US,40.870455,-72.798601,0,0,0,0,0,0
6715,306 7th Ave,Brooklyn,NY,11215,US,40.66792,-73.98092,0,0,0,1,1,0
6734,4902 Vernon Blvd.,Long Island City,NY,11101,US,40.7434,-73.95402,0,0,0,0,0,0
6737,2 Clifton Country Rd,Clifton Park,NY,12065,US,42.861016,-73.78043000000001,1,1,1,1,1,0
6739,665 Middle Country Rd,Saint James,NY,11780,US,40.860601,-73.154206,0,0,0,0,0,0
6745,935 State Route 37,Akwesasne,NY,13655,US,44.966698,-74.638788,0,0,0,0,0,0
6754,10712 71st Ave,Forest Hills,NY,11375,US,40.720859000000004,-73.84456999999999,0,1,0,1,1,0
6788,2 Penn Plz,New York,NY,10121,US,40.74991,-73.99212,0,0,0,0,0,0
6789,2 Penn Plz,New York,NY,10121,US,40.749911,-73.992121,0,0,0,0,0,0
6790,2 Penn Plz,New York,NY,10121,US,40.749912,-73.992122,0,0,0,0,0,0
6802,2265 South Rd,Poughkeepsie,NY,12601,US,41.644172,-73.922287,0,1,1,1,1,1
6805,52 Vanderbilt Ave,New York,NY,10017,US,40.754408000000005,-73.977327,0,0,0,1,1,0
6810,300 Wayto Rd,Schenectady,NY,12303,US,42.759954,-73.94166899999999,1,0,0,1,1,0
6820,4371 Buffalo Rd,North Chili,NY,14514,US,43.119808,-77.80546899999999,0,1,0,0,1,0
6830,1834 College Point Blvd,College Point,NY,11356,US,40.78226,-73.84607,0,1,1,1,1,0
6847,6820 Rockaway Beach Blvd,Arverne,NY,11692,US,40.58982,-73.79848,0,0,0,0,0,0
6852,1075 7th North St,Liverpool,NY,13088,US,43.100713,-76.18558399999999,0,0,0,0,1,0
6853,4803 W Taft Rd,Liverpool,NY,13088,US,43.119009999999996,-76.185004,0,0,0,0,1,0
6856,47 E Gun Hill Rd,Bronx,NY,10467,US,40.882156,-73.88022,0,1,0,1,1,0
6860,160 State St,Auburn,NY,13021,US,42.937117,-76.571172,1,1,0,0,1,0
6865,1165 State Route 374,Dannemora,NY,12929,US,44.72183,-73.72385,0,0,0,0,0,0
6876,2053 W Genesee Tpke,Camillus,NY,13031,US,43.034706,-76.364754,1,1,0,0,1,0
6877,361 Route 202,Pomona,NY,10970,US,41.186652,-74.036171,0,0,0,0,0,1
6880,1414 Dryden Rd,Freeville,NY,13068,US,42.470982,-76.40270699999999,0,0,0,0,0,0
6884,139 Centre St,New York,NY,10013,US,40.717459999999996,-74.00036999999999,0,0,0,0,1,0
6885,162 Tompkins St,Cortland,NY,13045,US,42.590972,-76.191273,1,1,0,1,1,0
6909,8111 Broadway,Elmhurst,NY,11373,US,40.74301,-73.88253,0,1,1,0,0,1
6910,2920 US Route 11,Whitney Point,NY,13862,US,42.335149,-75.972112,0,0,0,0,1,0
6912,10207 N Riva Ridge Loop,Fort Drum,NY,13602,US,44.04489,-75.75786,0,0,0,0,0,0
6913,477 Hamilton St,Geneva,NY,14456,US,42.856862,-77.003877,1,1,0,0,1,0
6914,170 Eastern Blvd,Canandaigua,NY,14424,US,42.878602,-77.262041,1,1,0,0,1,0
6928,1369 Broadway,New York,NY,10018,US,40.752311999999996,-73.987561,0,0,0,0,0,0
6939,3291 Amboy Rd,Staten Island,NY,10306,US,40.560942,-74.135257,0,0,0,1,1,1
6941,387 Jay St,Brooklyn,NY,11201,US,40.6923,-73.9872,0,0,0,1,1,0
6945,484 9th Ave,New York,NY,10018,US,40.75533,-73.99478,0,0,0,0,0,0
6947,31 S West St,Homer,NY,13077,US,42.634214,-76.191305,0,0,0,0,0,0
6951,5510 5th Ave,Brooklyn,NY,11220,US,40.64237,-74.01338,0,0,0,0,1,0
6960,873 Flatbush Ave,Brooklyn,NY,11226,US,40.65056,-73.95874,0,1,0,1,1,0
6984,4909 S Park Ave,Hamburg,NY,14075,US,42.762737,-78.824865,1,0,0,1,1,0
6990,111 Central Park North,New York,NY,10026,US,40.79849,-73.9528,0,0,0,1,1,0
6992,1141 Wicker St,Ticonderoga,NY,12883,US,43.857746,-73.43894300000001,1,0,0,0,1,0
6998,262 Alexander Ave,Bronx,NY,10454,US,40.81007,-73.924989,0,0,0,0,1,0
7001,JFK Int'l Airport,Jamaica,NY,11430,US,40.643146,-73.782167,0,0,0,0,0,0
7002,JFK Int'l Airport,Jamaica,NY,11430,US,40.642631,-73.782871,0,0,0,0,0,0
7005,260 E 161st St,Bronx,NY,10451,US,40.825623,-73.91883100000001,0,0,1,1,0,0
7013,381 Route 25A,Mount Sinai,NY,11766,US,40.934709999999995,-73.02292,0,0,0,0,1,0
7026,218 State Highway 30S,Amsterdam,NY,12010,US,42.927061,-74.200122,1,1,1,0,1,0
7028,1 Archie Bordeau Rd,Plattsburgh,NY,12901,US,44.651744,-73.483721,1,1,1,0,1,0
7030,50 Pine St,New York,NY,10005,US,40.70684,-74.00879,0,0,0,0,0,0
7051,13640 39th Ave,Flushing,NY,11354,US,40.76112,-73.82746,0,0,0,0,1,0
7053,4405 Kissena Blvd,Flushing,NY,11355,US,40.754,-73.82238000000001,0,1,0,0,0,0
7061,2168 86th St,Brooklyn,NY,11214,US,40.60224,-73.94438000000001,0,0,0,1,1,0
7067,1571 York Ave,New York,NY,10028,US,40.774196999999994,-73.948492,0,1,0,1,0,0
7072,67 Cooper Sq,New York,NY,10003,US,40.729076,-73.990143,0,1,0,1,1,0
7079,1351 Central Ave,Albany,NY,12205,US,42.703996999999994,-73.81630799999999,1,1,1,1,1,0
7085,325 Wyckoff Ave,Ridgewood,NY,11385,US,40.699917,-73.91161899999999,0,0,0,1,1,0
7086,107-11/15 Rockaway Blvd,Ozone Park,NY,11417,US,40.67886,-73.83218000000001,0,0,0,1,1,0
7087,620 New Loudon Rd,Latham,NY,12110,US,42.730277,-73.761614,1,1,1,1,1,0
7096,3819 Forest Pkwy,North Tonawanda,NY,14120,US,43.063241,-78.834953,0,1,0,1,1,0
7113,1780 Middle Country Rd,Ridge,NY,11961,US,40.89175,-72.90057,0,0,0,0,0,0
7119,123 Freemans Bridge Rd #131,Glenville,NY,12302,US,42.842432,-73.940732,1,0,0,1,0,0
7130,2044 Montauk Hwy,Bridgehampton,NY,11932,US,40.93246,-72.31628,0,0,0,0,1,0
7132,2225 Colvin Blvd,Tonawanda,NY,14150,US,42.998368,-78.851414,0,1,0,0,1,0
7136,16 Pinehollow Rd,Oyster Bay,NY,11771,US,40.865472,-73.53253000000001,0,0,0,1,1,0
7146,41 Sunrise Hwy,Lindenhurst,NY,11757,US,40.70032,-73.37793,0,0,0,1,1,0
7151,65 Congress St,Troy,NY,12180,US,42.728936,-73.690961,1,1,0,1,1,0
7166,25 W 43rd St,New York,NY,10036,US,40.754556,-73.981155,0,1,0,1,0,0
7169,244 Madison Ave,New York,NY,10016,US,40.750157,-73.981324,0,1,0,1,1,0
7171,550 Atlantic Ave,Oceanside,NY,11572,US,40.640871999999995,-73.656611,0,1,0,1,1,0
7172,2650 Long Beach Rd,Oceanside,NY,11572,US,40.647335999999996,-73.638289,0,1,0,1,1,0
7174,68 North St,Auburn,NY,13021,US,42.934403,-76.566201,1,1,0,0,1,0
7175,5323 W Genesee St,Camillus,NY,13031,US,43.040760999999996,-76.27249599999999,1,1,0,0,1,0
7177,1513 Crescent Rd,Clifton Park,NY,12065,US,42.820555,-73.763565,1,1,1,1,1,0
7178,2222 Central Ave,Schenectady,NY,12304,US,42.762988,-73.884684,0,0,1,1,1,0
7179,407 E Genesee St,Fayetteville,NY,13066,US,43.029749,-76.006486,0,0,1,0,1,0
7180,6010 80th St,Middle Village,NY,11379,US,40.72498,-73.87933000000001,0,1,0,1,0,0
7181,117 State Highway 7,Bainbridge,NY,13733,US,42.317701,-75.412583,0,0,0,0,0,0
7182,1001 W Genesee St,Syracuse,NY,13204,US,43.053498,-76.170902,0,0,0,0,1,0
7185,640 Montauk Hwy,Bayport,NY,11705,US,40.7481,-73.047618,0,0,0,1,0,0
7186,86 Glen Cove Ave,Glen Cove,NY,11542,US,40.859168,-73.634899,0,1,0,1,1,0
7188,214 Islip Ave,Islip,NY,11751,US,40.737198,-73.207865,0,0,0,0,0,0
7189,3415 Veterans Hwy,Ronkonkoma,NY,11779,US,40.782595,-73.090388,0,0,0,1,1,1
7190,3072 Veterans Memorial Hwy,Bohemia,NY,11716,US,40.787951,-73.13709899999999,0,0,0,1,0,0
7194,3572 Route 9 W,Highland,NY,12528,US,41.729407,-74.001473,0,0,0,0,0,0
7195,380 Flatbush Ave #384,Kingston,NY,12401,US,41.960315,-73.971198,1,1,1,1,1,0
7196,2057 State Route 208,Montgomery,NY,12549,US,41.477089,-74.209587,0,0,0,0,1,0
7197,1481 Weaver St,Scarsdale,NY,10583,US,40.981226,-73.776317,0,0,0,1,0,0
7206,159-04 Cross Bay Blvd,Howard Beach,NY,11414,US,40.645342,-73.836253,0,0,0,1,1,0
7207,975 E Ridge Rd,Rochester,NY,14621,US,43.196891,-77.591986,1,1,0,1,1,0
7217,386 S Broadway,Tarrytown,NY,10591,US,41.063447,-73.862153,0,1,0,1,0,0
7218,709 Harry L Dr,Johnson City,NY,13790,US,42.124672,-75.976214,0,1,0,1,0,0
7219,3808 Vestal Pkwy E,Vestal,NY,13850,US,42.095802,-75.979551,1,0,1,1,1,0
7228,408 Elmira Rd,Ithaca,NY,14850,US,42.419616999999995,-76.520614,1,0,1,1,1,0
7236,38 Montauk Hwy,Quogue,NY,11959,US,40.822888,-72.609045,0,0,0,0,0,0
7237,6405 Dysinger Rd,Lockport,NY,14094,US,43.132141,-78.677915,1,1,0,0,1,0
7239,839 Prospect Ave,Bronx,NY,10459,US,40.819902,-73.901622,0,0,0,0,1,0
7242,JFK Int'l Airport,Jamaica,NY,11430,US,40.643004,-73.790371,0,0,0,0,0,0
7248,12903 N Conduit Ave,South Ozone Park,NY,11420,US,40.667196000000004,-73.81125899999999,0,1,0,0,0,0
7252,435 Hempstead Tpke,West Hempstead,NY,11552,US,40.705384,-73.654661,0,0,0,1,1,0
7255,4000 Hempstead Tpke,Farmingdale,NY,11735,US,40.725015,-73.487785,1,1,1,1,0,0
7263,482A Kings Hwy,Brooklyn,NY,11223,US,40.60451,-73.9743,0,1,0,0,1,0
7265,833 4th Ave,Brooklyn,NY,11232,US,40.657313,-74.000675,0,0,0,0,1,0
7268,194 Merritts Rd,Farmingdale,NY,11735,US,40.72291,-73.45846,1,1,1,1,0,0
7269,3904 Northern Blvd,Long Island City,NY,11101,US,40.752272,-73.924265,0,0,0,0,0,0
7270,366 Elmira Rd,Ithaca,NY,14850,US,42.423041999999995,-76.516456,1,0,1,1,1,0
7271,1954 Lyell Ave,Rochester,NY,14606,US,43.164764,-77.67863299999999,0,1,0,1,1,0
7272,3060 Court St,Syracuse,NY,13208,US,43.082473,-76.123926,0,0,0,0,1,0
7275,285 N Comrie Ave,Johnstown,NY,12095,US,43.018386,-74.362341,0,0,0,0,1,0
7278,122 Fulton St,New York,NY,10038,US,40.71017,-74.00761,0,0,0,1,1,0
7287,1151 Fulton St,Brooklyn,NY,11216,US,40.68121,-73.95546,0,0,0,0,1,0
7296,525 William Floyd Pkwy,Shirley,NY,11967,US,40.74219,-72.86946999999999,0,0,0,1,1,0
7297,1879 Old Country Rd,Riverhead,NY,11901,US,40.922309999999996,-72.714191,1,1,1,1,0,0
7298,816 County Road 39,Southampton,NY,11968,US,40.892981,-72.42468199999999,0,0,0,1,1,0
7300,1454 Upper Front St,Binghamton,NY,13901,US,42.16858,-75.886832,0,0,0,1,1,0
7304,49 Nassau Street,New York,NY,10038,US,40.70888,-74.0091,0,0,0,1,1,0
7305,2723 Brewerton Rd,Syracuse,NY,13211,US,43.105315999999995,-76.146252,0,0,0,0,1,0
7314,712 3rd Ave,New York,NY,10017,US,40.7525,-73.97329,0,0,0,1,1,0
7315,1703 3rd Ave,New York,NY,10128,US,40.784690999999995,-73.949627,0,0,0,1,1,0
7319,1132 Myrtle Ave,Brooklyn,NY,11206,US,40.69704,-73.93531999999999,0,1,0,0,0,0
7323,200 E 89th St,New York,NY,10128,US,40.78063,-73.952507,0,0,0,1,1,0
7329,4235 Main St,Flushing,NY,11355,US,40.754690000000004,-73.82778,0,1,0,0,0,0
7331,1877 W Ridge Rd,Greece,NY,14615,US,43.206521,-77.67902600000001,0,0,0,1,1,0
7332,951 New Loudon Rd,Latham,NY,12110,US,42.765242,-73.754463,1,1,1,1,1,0
7333,756 Quaker Rd,Queensbury,NY,12804,US,43.316403,-73.613652,1,0,1,1,1,0
7335,1173 Jericho Tpke,Commack,NY,11725,US,40.846424,-73.266982,1,1,1,1,1,0
7336,175 Hoosick St,Troy,NY,12180,US,42.739319,-73.675101,1,1,0,1,1,0
7342,201 Madison St,New York,NY,10002,US,40.712621,-73.990462,0,0,0,1,1,0
7343,1070 W Beech St,East Atlantic Beach,NY,11561,US,40.5862,-73.69864,0,1,0,1,1,0
7354,9032 N Seneca St,Weedsport,NY,13166,US,43.054961,-76.558187,0,0,0,0,0,0
7375,1707 Burrstone Rd,New Hartford,NY,13413,US,43.093882,-75.277524,1,1,1,0,1,0
7377,503 E Main St,Endicott,NY,13760,US,42.0951,-76.057038,0,0,0,1,1,0
7378,63 Main St,Binghamton,NY,13905,US,42.09952,-75.921651,0,0,0,1,0,0
7389,305 Waverly Ave,Patchogue,NY,11772,US,40.775059000000006,-73.02820600000001,0,1,0,1,1,0
7396,7481 State Route 5,Clinton,NY,13323,US,43.080286,-75.391526,0,0,0,1,0,0
7401,168 W 48th St,New York,NY,10036,US,40.759538,-73.98369,0,1,0,1,0,0
7404,8611 Lefferts Blvd,Richmond Hill,NY,11418,US,40.699675,-73.830281,0,0,0,0,0,0
7416,1342 Route 52,Carmel,NY,10512,US,41.508765999999994,-73.683431,0,0,0,0,1,0
7427,1014 Flatbush Ave,Brooklyn,NY,11226,US,40.646449,-73.95806800000001,0,1,0,1,1,0
7439,4030 Broadway,New York,NY,10032,US,40.842321000000005,-73.939284,0,0,0,0,1,0
7442,90 Broad St,New York,NY,10004,US,40.70367,-74.01165999999999,0,0,0,0,0,0
7443,1775 Coney Island Ave,Brooklyn,NY,11230,US,40.61411,-73.963148,0,1,0,0,1,0
7447,79-27 Main Street,Flushing,NY,11367,US,40.718472999999996,-73.817164,0,1,0,0,1,0
7451,568 West 235th St #570,Bronx,NY,10463,US,40.885551,-73.91024399999999,0,1,1,1,1,0
7455,1930 Bartow Ave,Bronx,NY,10469,US,40.867958,-73.833974,0,1,0,0,1,0
7456,1099 1st Ave,New York,NY,10065,US,40.76032,-73.96148000000001,0,1,0,1,1,0
7460,665 Elm St,Buffalo,NY,14203,US,42.898818,-78.864586,0,0,0,0,0,0
7465,21911 N Conduit Ave,Jamaica,NY,11413,US,40.666447999999995,-73.756925,0,1,0,0,0,0
7467,1141 Broadway St,Elmira,NY,14904,US,42.057316,-76.818724,0,1,0,0,1,0
7471,1909 Teall Ave,Syracuse,NY,13206,US,43.075007,-76.12355,0,1,0,0,1,0
7473,875 Saw Mill River Rd,Ardsley,NY,10502,US,41.015107,-73.845145,0,0,0,1,1,0
7486,4744 Buckley Rd,Liverpool,NY,13088,US,43.141363,-76.186839,0,0,0,0,1,0
7488,78 Brookside Ave,Chester,NY,10918,US,41.359081,-74.28482,0,0,0,1,1,0
7493,1620 Neptune Ave,Brooklyn,NY,11224,US,40.578895,-73.984399,0,1,0,1,1,0
7494,33 Beaver St,New York,NY,10004,US,40.704962,-74.011758,0,0,0,0,0,0
7502,323 W 42nd St,New York,NY,10036,US,40.757909000000005,-73.990922,0,1,0,1,0,0
7506,1280 Sweet Home Rd,Amherst,NY,14228,US,42.99671,-78.800525,1,1,1,0,0,0
7507,89 State St,Rochester,NY,14614,US,43.157146999999995,-77.614159,0,0,0,0,0,0
7512,50 E 161st St,Bronx,NY,10451,US,40.828540000000004,-73.92760200000001,0,0,1,1,0,0
7520,200 W 54th St,New York,NY,10019,US,40.763366999999995,-73.981658,0,1,0,1,1,0
7528,351 Grand St,New York,NY,10002,US,40.716895,-73.989526,0,0,0,1,1,0
7545,14401 Liberty Ave,Jamaica,NY,11435,US,40.692739,-73.808785,0,0,0,0,1,0
7546,11320 Beach Channel Dr,Far Rockaway,NY,11694,US,40.582609999999995,-73.836638,0,0,0,0,1,0
7553,1333 North Ave,New Rochelle,NY,10804,US,40.946652,-73.794801,0,0,0,1,0,0
7555,4 E Fordham Rd,Bronx,NY,10468,US,40.862709,-73.900805,0,0,0,0,1,0
7569,6 Harden Blvd,Camden,NY,13316,US,43.331148999999996,-75.747113,0,0,0,0,0,0
7587,2030 Albany Post Rd,Croton on Hudson,NY,10520,US,41.234853,-73.915103,0,0,0,1,0,0
7589,5914 Beach Channel Dr,Far Rockaway,NY,11692,US,40.594124,-73.789465,0,0,0,0,0,0
7590,18905 Linden Blvd,Saint Albans,NY,11412,US,40.691849,-73.762165,0,0,0,0,0,0
7598,544 E Main St,Palmyra,NY,14522,US,43.063173,-77.223782,0,0,0,0,1,0
7603,3033 3rd Ave,Bronx,NY,10455,US,40.819918,-73.913318,0,1,0,0,1,0
7605,8509 5th Ave,Brooklyn,NY,11209,US,40.622025,-74.02569799999999,0,1,0,0,1,0
7607,8073 Clinton Street Rd,Bergen,NY,14416,US,43.073619,-77.947848,0,0,0,0,0,0
7615,5028 W Ridge Rd,Spencerport,NY,14559,US,43.218788,-77.792928,0,0,0,0,1,0
7618,834 Long Pond Rd,Greece,NY,14612,US,43.241731,-77.696075,0,0,0,1,0,0
7620,18823 Union Tpke,Fresh Meadows,NY,11366,US,40.729558000000004,-73.78052,0,0,0,0,1,0
7625,3833 Broadway,New York,NY,10032,US,40.835868,-73.94386,0,0,0,0,1,0
7626,48 W 37th St,New York,NY,10018,US,40.750926,-73.98477,0,0,0,0,0,0
7631,662 Columbus Ave,Thornwood,NY,10594,US,41.114929,-73.771078,0,0,0,1,0,0
7634,450 Bay St,Staten Island,NY,10304,US,40.631190999999994,-74.07652399999999,0,0,0,0,0,0
7636,14636 45th Ave,Flushing,NY,11355,US,40.755318,-73.81594,0,1,0,0,0,0
7643,42 W 39th St,New York,NY,10018,US,40.752091,-73.983677,0,0,0,0,0,0
7644,2035 Bartow Ave,Bronx,NY,10475,US,40.869644,-73.829357,0,0,0,0,1,0
7647,604 Route 5 and 20,Irving,NY,14081,US,42.561987,-79.119444,0,0,0,0,0,0
7655,182 Bedford Ave,Brooklyn,NY,11249,US,40.7178,-73.957912,0,0,0,0,0,0
7657,725 Route 25A,Miller place,NY,11764,US,40.943878000000005,-72.974565,0,0,0,1,1,1
7671,1592 Westchester Ave,Bronx,NY,10472,US,40.829041,-73.875764,0,1,0,0,1,0
7676,1200 Brooks Ave,Rochester,NY,14624,US,43.127767999999996,-77.666023,1,1,1,1,1,0
7689,3703 95th St,Jackson Heights,NY,11372,US,40.750999,-73.87208100000001,0,1,0,1,1,0
7691,1300 Jefferson Rd,Rochester,NY,14623,US,43.087568,-77.594814,1,0,1,1,1,0
7698,513 Myrtle Ave,Brooklyn,NY,11205,US,40.693276000000004,-73.967386,0,1,0,0,0,0
7699,289 Utica Ave,Brooklyn,NY,11213,US,40.668168,-73.931122,0,0,0,0,1,0
7700,1030 154th St,Whitestone,NY,11357,US,40.79242,-73.807373,0,1,0,1,1,0
7707,7823 17th Ave,Brooklyn,NY,11214,US,40.612567,-74.000507,0,0,0,1,1,0
7711,250 Prospect Park W,Brooklyn,NY,11215,US,40.659085,-73.98161800000001,0,0,0,1,1,0
7717,223 Montauk Hwy,Westhampton Beach,NY,11978,US,40.821311,-72.642504,0,0,0,0,1,0
7730,10 W 33rd St,New York,NY,10001,US,40.747937,-73.98573499999999,0,0,0,1,1,0
7731,760 E Tremont Ave,Bronx,NY,10460,US,40.84425,-73.888961,0,0,0,0,1,0
7732,6054 Route 22,Plattsburgh,NY,12901,US,44.721322,-73.46950799999999,1,1,1,0,1,0
7735,398 Audobon Ave,New York,NY,10033,US,40.851083,-73.930799,0,0,0,0,1,0
7739,527 Metropolitan Ave,Brooklyn,NY,11211,US,40.714169,-73.951174,0,1,0,0,0,0
7743,1650 Richmond Ave,Staten Island,NY,10314,US,40.608340000000005,-74.162215,0,1,0,1,1,0
7750,170 State St,Albany,NY,12207,US,42.652322,-73.757621,0,0,0,0,1,0
7752,1000 Col Eileen Collins Blvd,Syracuse,NY,13212,US,43.113921000000005,-76.111148,0,0,0,0,1,0
7754,1776 Eastchester Rd,Bronx,NY,10461,US,40.848777,-73.84234000000001,0,1,0,1,1,0
7767,5109 Broadway,Woodside,NY,11377,US,40.754068,-73.908336,0,0,0,1,1,0
7771,1445 Route 199,Milan,NY,12571,US,41.954764000000004,-73.761744,0,0,0,1,0,0
7781,51 S Pearl St,Albany,NY,12207,US,42.648596000000005,-73.755326,0,0,0,0,1,0
7782,51 S Pearl St,Albany,NY,12202,US,42.6482,-73.754449,0,0,0,0,1,0
7788,95-56 Queens Blvd,Rego Park,NY,11374,US,40.730027,-73.862954,0,0,0,1,1,0
7791,934 Kings Hwy,Brooklyn,NY,11229,US,40.606942,-73.962727,0,1,0,1,1,0
7792,506 Clarkson Ave,Brooklyn,NY,11203,US,40.65575,-73.94268000000001,0,1,0,0,1,0
